id,clubCode,name,shortName,alfabeticOrder,direction,town,province,telephone,fax,mail,mail2,president,contact,telephoneCR,telephoneMobileCR,web
179,080464,CLUB BASQUET ABRERA,C.B. ABRERA        ,ABRERA C.B.,"PASSEIG DE L'ESGLÉSIA, 22",ABRERA,Barcelona,937703936,000000000,cbabrera@basquetcatala.org,,GERARD  MARGARIT MARTÍN,JOSE DIEGO CARO GARCIA,937703936,644984454,WWW.CBABRERA.COM
312,170004,CLUB BASQUET ADEPAF FIGUERES,CLUB BASQUET ADEPAF,ADEPAF FIGUERES C.B.,"PAVELLÓ MUNICIPAL, Plaça dels voluntaris s/n",FIGUERES,Girona,666838377,972678398,dtecnica@ucap.cat,president@adepaf.cat,ORIOL RABERT LLORÀ,GUILLEM PASCUA DUCH,972678398,666838377,www.adepaf.cat
393,250011,BASQUET AGRAMUNT CLUB,BASQUET AGRAMUNT CL,AGRAMUNT  B.C.,"Avinguda dels Esports, 37",AGRAMUNT,Lleida,605060406,973392576,rubenanye@gmail.com,,RUBÉN AÑÉ FARRÉ,RUBEN AÑE FARRE,973392576,605060406,www.basquetagramunt.wordpress.com
433,430013,CLUB BASQUET AGUILES,CLUB BASQUET AGUILE,AGUILES C.B.,"RAVAL SANTA COLOMA, 40",SANTA COLOMA DE QUERALT,Tarragona,661609652,977880473,cbaguiles@gmail.com,,MARC VERGÉS ALBAREDA,ENRIC JUNYENT,,600 58 03 86,www.cbaguiles.cat
2889,170305,CLUB BASQUET ALBERA-PERALADA,C.B. ALBERA-PERALAD,ALBERA-PERALADA CLUB BÀSQUET,"Passeig Catalunya, s/n",PERALADA,Girona,625140117,,dtecnica@ucap.cat,,MARC BERTRAN ILLA,Guillem Pascua Duch,,666838377,
443,430031,CLUB BASQUET ALCANAR,CLUB BASQUET ALCANA,ALCANAR C.B.,"AVDA ABRIL, 13",ALCANAR,Tarragona,676727354,000000000,puma104@hotmail.com,,JUAN DANIEL FONTET APARICIO,JOSEP MARIA MUÑOZ REDON,977731138,676727354,cbalcanar.com
3318,430326,CLUB BASQUET ALCOVER,ALCOVER C.B.,ALCOVER CLUB BÀSQUET,"PL. COSME VIDAL, 5",ALCOVER,Tarragona,652353150,,clubbasquetalcover@gmail.com,,VÍCTOR ALEJANDRE MADRID,Pau Bové Ferré,,673570275,
129,080231,CLUB BASQUET ALELLA,C.B. ALELLA        ,ALELLA C.B.,"C/. Creu de pedra, 29-31",ALELLA,Barcelona,640500881,000000000,club.basquet.alella@gmail.com,,NORMA PAREDES ADSERÀ,NORMA PAREDES ADSERA,,640500881,www.basquetalella.com
18,080026,CLUB BASQUET ALISOS,C.B. ALISOS        ,ALISOS C.B.,Agricultura 204,BARCELONA,Barcelona,652972375,932780433,dtcbalisos@gmail.com,,FRANCESC XAVIER GOMEZ  GRACIA,XAVI GOMEZ GRACIA,932780433,652972375,www.cbalisos.net
53,080069,BASKET ALMEDA,BASQUET ALMEDA     ,ALMEDA BASKET,SANT FERRAN 45 BIS,CORNELLA DE LLOBREGAT,Barcelona,606110113,933775577,info@basketalmeda.com,,MANUEL  ESTEPA JIMENEZ,JOSE LUIS MARTINEZ SEIJO,933775577,606110113,www.basketalmeda.com
2451,250111,CLUB BASQUET ALPICAT,C.B. ALPICAT       ,ALPICAT C.B.,"PASSEIG DEL PARC, S/N",ALPICAT,Lleida,659145901,,coordinaciocba@gmail.com,basquetalpicat@gmail.com,PAQUI GALEANO CAMBERO,Arnau Garrabé Tosquella,,659145901,
2490,081440,AGRUPACIO ESPORTIVA CLUBS ALT MARESME,AECAM              ,ALT MARESME AEC,"GIRONA, s/n",MALGRAT DE MAR,Barcelona,646983106,937678879,yesaecam@gmail.com,,JOSE CAPO GARRIDO,David Martin,,687069635 ,www.aecam.cat
2708,430311,CLUB BASQUET ALTAFULLA,C.B. ALTAFULLA,ALTAFULLA C.B.,"Camí del Roquissar, s/n",ALTAFULLA,Tarragona,679740770,000000000,cbaltafulla@gmail.com,,ASSUMPTA TOMÀS I CORVO,DANI PONCE REAL,,665954074,cbaltafulla.cat
3281,430324,CLUB BASQUET L'AMETLLA DE MAR,C.B. L'AMETLLA DE M,AMETLLA DE MAR C.B.,"PRESIDENT LLUIS COMPANYS, 28",L'AMETLLA DE MAR,Tarragona,606815892,,cblacala@gmail.com,,SANTI DUQUE GARCIA,SANTI DUQUE GARCIA,,606815892,
177,080453,CLUB DE BASQUET L'AMETLLA DEL VALLES,C.B. AMETLLA DEL VA,AMETLLA DEL VALLES C.B.,"C/Font dels Caçadors, 20","AMETLLA DEL VALLES, L'",Barcelona,645735325,000000000,lluisgirbau@hotmail.com,,LLUIS GIRBAU PUIG,DOLORS FERRER ORRI,938430974,662529242,www.cbametlla.com
3191,081586,AMPA ESCOLA DOMINIQUES DE L'ENSENYAMENT,AMPA ESCOLA DOMINIQ,AMPA ESCOLA DOMINIQUES DE L'ENSENYAMENT,URGUELL 170 6 2 ,BARCELONA,Barcelona,607146137,,oscarmarsa@dominiquesbcn.cat,,ESTHER-ELENA NIETO CRESPO,Oscar Marsa Valles,,607146137,
2246,430012,CLUB BASQUET AMPOSTA,C.B. AMPOSTA       ,AMPOSTA C.B.,"CARRER SAGUNT, 4",AMPOSTA,Tarragona, 620 20 06 70,977701216,coordinacio@cbamposta.com,,EDGAR DASI ESTEVE,Edgar Dasi Esteve,,635403772,www.cbamposta.com
398,250017,BASQUET CLUB ANDORRA,B.C. ANDORRA       ,ANDORRA B.C.,"BAIXADA DEL MOLÍ, 20 1r 2a",ANDORRA LA VELLA,Andorra,00376890361,00376890391,jaumetomas@bca.ad,secretaria@bca.ad,GORKA AIXÀS OLEA,JAUME TOMAS VILANA,00376885900,00376344195,www.bca.ad
2466,170280,CLUB BASQUET ANGLES,C.B. ANGLES        ,ANGLES C.B.,"C/Salvador Dalí, 16",ANGLES,Girona,633080946,,basquet.angles@gmail.com,,TONI FRANCO CABALLÉ,ANTONI FRANCO CABALLE,972983386,633080946,
440,430024,CLUB BASQUET L'ARBOÇ,BASQUET ARBOÇ      ,ARBOÇ BASQUET,"Av. Tarragona, 92-94 - 2º-2ª","ARBOÇ, L'",Tarragona,678755476,,basquetarbocenc@gmail.com,,JOSEP ROSSELL MAÑÉ,PERE RODRÍGUEZ MASIP,977670713,627385618,www.basquetarbocenc.cat
324,170022,CLUB BASQUETBOL ARBUCIES,CLUB BASQUET ARBUCI,ARBUCIES C.B.,"C/Castell, 98-bxs.",ARBUCIES,Girona,600703311,,clubbasquetarbucies@gmail.com,,OTGER AULADELL I COLOMER,PABLO GUERRA REYES,,631208329,
54,080071,CLUB ARENYS BASQUET,CLUB ARENYS BASQUET,ARENYS B.C.,"FONDO DE LES CREUS, S/N",ARENYS DE MAR,Barcelona,687801013,,coordinacioarenysbasquet@gmail.com,juntaarenysbasquet@gmail.com,AINOHA MORENO AYALA,CARLES TORIBIO GÓMEZ,,687801013,www.arenysbasquet.cat
64,080091,CLUB BASQUET ARGENTONA,C.B. ARGENTONA     ,ARGENTONA C.B.,Carretera de Vilassar s/n,ARGENTONA,Barcelona,600073495,937970151,cbargentona@gmail.com,,JOAN FRANCESC  BURGUES CASTELLA,DAVID VICENTE MOLINA,937970151,600073495,www.cbargentona.cat
3463,081618,ASSOCIACIO ESPORTIVA ARRAHONA,A.E. ARRAHONA,ARRAHONA ASSOCIACIO ESPORTIVA,c/La Llanera 31 1er 2a,Sabadell,Barcelona,601526847,,secretaria@aearrahona.com,presidencia@aearrahona.com,SERGIO GONZÁLEZ HERNÁNDEZ,Sergio González Hernández,,651994308,aearrahona.com
154,080345,CLUB BASQUET ARTES,C.B. ARTES,ARTES C.B.,"PAVELLO MUNICIPAL, BARCELONA S/N",ARTES,Barcelona,606880746,000000000,illakovic@gmail.com,,SANTI PERRAMON PIÑA,XAVIER ILLA VILA,938306642,606880746,www.cbartes.net
401,250020,CENTRE EXCURSIONISTA NOVA GENT (C.E.N.G.),CENG ARTESA DE SEGR,ARTESA DE SEGRE CENG,Apartat de Correus 32,ARTESA DE SEGRE,Lleida,636476755,000000000,direccio.tecnica@cengartesa.cat,info@cengartesa.cat,XAVIER FARRAS PUIGPINOS,EDU REINA TORRES,,623001878,
3336,081605,ASSOCIACIO EIXIC LLEURE I ESPORT,ASSOCIACIO EIXIC,ASSOCIACIO EIXIC,C/GOMIS 110 Escala 7 2n 2a,Barcelona,Barcelona,606128994,,asoeixic@gmail.com,asoeixic@gmail.com,MARCO CONTRERAS SOLA,MARCO CONTRERAS SOLA,,606128994,www.asoeixic.com
3272,081596,FUNDACIO AULA ESCOLA EUROPEA,FUNDACIO AULA ESCOL,AULA ESCOLA EUROPEA FUNDACIO,"AVDA. MARE DE DÉU DE LORDA, 34",BARCELONA,Barcelona,932030354,,esport@aula-ee.com,xsaura@aula-ee.com,XAVIER SAURA BARRERA,Xavier Saura,932030354,629314127,https://www.aula-ee.com
2486,081427,ASSOCIACIO BASQUET BADALONA 2005,A. BASQUET BADALONA,BADALONA 2005 AB,Campoamor 43,BADALONA,Barcelona,607704368,932753476,abb2005bk@gmail.com,javiergarciareina@hotmail.com,FRANCESC XAVIER GARCIA REINA,JOSEP MARIA GIMENEZ MELLADO,,658913031,www.abbbasquet.com
150,080339,ASSOCIACIO ESPORTIVA BADALONES,A.E. BADALONES     ,BADALONES  A.E.,"Plaça del Gas, s/n",BADALONA,Barcelona,620940940,000000000,administracio@aebadalones.com,,MANEL DUNJO COSCOLLANO,Oriol Entrena,934603278,659044590,
3449,250141,CLUB BASKET BALAFIA,C.B. BALAFIA,BALAFIA CLUB BASKET,"C/ CORREGIDOR ESCOFET, 83 3r 1a",LLEIDA,Lleida,636437591,,cebbalafia@gmail.com,,MERCÈ SANS SÁNCHEZ,ABRAHAM ODINA MORENO,,636437591,
402,250021,CLUB BASQUET BALAGUER,CLUB BASQUET BALAGU,BALAGUER C.B.,"C/ URGELL, 100",BALAGUER,Lleida,687591226,000000000,coordinacio@cbbalaguer.cat,,JERO MARTINEZ CORES,JONATAN MUÑOZ CARRIÓN,,687591226,www.cbbalaguer.com
81,080125,CLUB BASQUET ATENEU MONTSERRAT,BASQUET ATENEU MONT,BAM,"Torre Damians, 6",BARCELONA,Barcelona,629946871,000000000,areatecnica@basquetbam.cat,info@basquetbam.cat,JOSEP FIGUERA CASTELLS,JOEL ROMERO LAMESA (WhatsApp),934322080,659606024,www.basquetbam.cat
315,170007,CLUB BASQUET BANYOLES,CLUB BASQUET BANYOL,BANYOLES C.B.,"Pavelló de la Farga, Pg. Mas Riera, 22",BANYOLES,Girona,669473143,972591837,banyolesbasquet@gmail.com,social@cbbanyoles.com,JOSEP GARCIA TARRES,Paula Ortega,,669473143 ,www.cbbanyoles.com
82,080126,UNIO ESPORTIVA BARBERA,U.E. BARBERA       ,BARBERA UE,"Doctor Moragas, 112",BARBERA DEL VALLES,Barcelona,610284840,937293931,barberabasquet@gmail.com,,JOSE NUÑEZ SEVILLA,JOSE NUÑEZ SEVILLA,937184320,610284840,www.uebarbera.es
2,080003,FUTBOL CLUB BARCELONA,F.C. BARCELONA,BARCELONA F.C.,"C/ ARISTIDES MAILLOL, S/N",BARCELONA,Barcelona,675338775,,seccio.basquet@fcbarcelona.cat,,JOAN LAPORTA I ESTRUCH,ADRIÀ CANTÓN,934963714,675338775,www.fcbarcelona.cat
2737,081537,CLUB BASQUET 3 VILES,BASQUET 3 VILES,BASQUET 3 VILES,Carrer Contrabandistes S/N,SANT ANDREU DE LLAVANERES,Barcelona,676460701,000000000,maresme3viles@gmail.com,,LAURA BIAMONTI,Jorge Garcia Gonzalez,,676460703,
3436,089995,BASQUET FPBC,BASQUET FPBC,BASQUET FPBC,"rambla guipúscoa, 27",Barcelona,Barcelona,933966620,,fundacio@basquetcatala.cat,,,Marina Cabré,933966620,667028816,
256,081305,BADALONA BASQUET CLUB,BADALONA BASQUET CL,BBC,"C/ PONENT, 143",BADALONA,Barcelona,679516151,,alopez@penya.com,jmontoliu@penya.com,ROSENDO GABARA CAÑADA,FERRAN CANALS,934602040,676310800,www.penya.com
56,080077,CLUB BASQUET BEGUES,C.B. BEGUES        ,BEGUES C.B.,APARTAT DE CORREUS 55 BEGUES,BEGUES,Barcelona,690050472,,basquetbegues@gmail.com,,DIEGO MARTINEZ RAMOS,DIEGO MARTÍNEZ RAMOS,936391414,690050472,www.basquetbegues.cat
384,170260,ASSOCIACIO ESPORTIVA BEGUR,A.E. BEGUR         ,BEGUR A.E.,C/Andalusia 6 baix 3er,Palafrugell,Girona,636915224,,aebegur@hotmail.com,,MARC MARTÍ CRUZ,MARC MARTÍ CRUZ,972308896,636915224,
2530,170286,FUNDACIO PRIVADA CATALANA ESPORTIVA BEGUR,F.P.C.E. BEGUR,BEGUR F.P. CATALANA ESP.,PAVELLO MUNICIPAL D'ESPORTS,BEGUR,Girona,659295195,972623484,basquetfebegur@gmail.com,esportsbegur@gmail.com,MAITE  SELVA HUERTAS,LLUIS CAPELLA PUJULÀ,,659295195,
391,250005,CLUB BASQUET BELL-LLOC,CLUB BASQUET BELL-L,BELL-LLOC C.B.,"PLAÇA MAJOR, 8",BELL-LLOC D'URGELL,Lleida,616473636,973560562,cbbelllloc@gmail.com,,ANTONIO  ALENTA SOBREVALS,ANTONIO ALENTÀ SOBREVALS,,616473636,
3474,250142,UNIO ESPORTIVA BELLCAIRE,U.E. BELLCAIRE,BELLCAIRE UNIO ESPORTIVA,"LES SOGUES, 22",BELLCAIRE D'URGELL,Lleida,628557648,,uebellcaire@gmail.com,,RAÜL TUFET LLAGUNA,MIKI MARTINEZ CASTRO,,615591349,
399,250018,CLUB BASQUET BELLPUIG,CLUB BASQUET BELLPU,BELLPUIG C.B.,"Av. Les Garrigues, s/n",BELLPUIG,Lleida,628094552,973320206,coordinacio.cbbellpuig@gmail.com,,SERGI MARTÍ COSCONERA,ISAAC TORRES PANADES,,628094552,
163,080363,ASSOCIACIO ESPORTIVA BELLSPORT,A.E. BELLSPORT     ,BELLSPORT A.E.,"AV. MARE DE DEU DE BELLVITGE, 7","HOSPITALET DE LLOBREGAT,L'",Barcelona,672446797,,bellsport@aebellsport.com,,JOSE ANTONIO TORRES JIMENEZ,MARIO LOPEZ ,,672446797,www.aebellsport.com
2882,430317,CLUB DE BASQUET BELLVEI,C.B. BELLVEI,BELLVEI CLUB DE BÀSQUET,LLUIS COMPANYS 30,BELLVEI,Tarragona,657648024,,basquetbellvei@gmail.com,,Mª DE LOS ÁNGELES RONDA RAMÍREZ,Víctor Gómez,,675150047,basquet.bellvei.blogspot.com
395,250014,CLUB BASQUET BELLVIS,CLUB BASQUET BELLVI,BELLVIS C.B.,"C/Felix Casaus, 2",BELLVIS,Lleida,609874932,973716373,calcolell@hotmail.com,,M. ALBA MESEGUE SABATE,PERE REÑE COLELL,973565366,609874932,
3332,081604,CLUB BASQUET BELLVITGE 2018,CLUB BÀSQUET BELLVI,BELLVITGE 2018 C.B.,RAMBLA DE LA MARINA 100-110 ,L'HOSPITALET DEL LLOBREGAT,Barcelona,600893746,,cbbellvitge2018@gmail.com,,DAVID RODRIGUEZ TOSSO,DAVID RODRIGUEZ TOSSO,,600893746,
57,080078,ASSOCIACIO ESPORTIVA BASQUET BERGA,A.E.B. BERGA       ,BERGA BASQUET A.E.,Guillem de berguedà s/n,BERGA,Barcelona,650046541,00000000,tresoreria.basquetberga@gmail.com,,HUG TUYET PLANS,HUG TUYET PLANS,930000000,649340094,basquetberga.cat
370,170235,CLUB BASQUET BESCANO,CLUB BASQUET BESCAN,BESCANO C.B.,"AVINGUDA ASSUMPTA, 14",BESCANO,Girona,667506345,,cbasquetbescano@gmail.com,,ROBERT LLAGOSTERA FERRER,ANTONI LLARAS BADIA,921218000,652807823,
45,080058,CLUB DE BASQUET INSTITUCIO MONTSERRAT (BIM),B.I.M.             ,BIM C. DE,"Cros, 6-8",BARCELONA,Barcelona,679635376,,clubbim.ct@gmail.com,clubbim.ct@gmail.com,CARLOS LECHA JUNOY,Joan-Marc Estrella,934210150,658869685,www.clubbim.cat
2717,250132,CLUB BALONCESTO BINEFAR,C.B. BINEFAR,BINEFAR C.B.,"ZARAGOZA, 18",BINEFAR,Osca,622364790,000000000,baloncestobinefar@hotmail.com,,OLGA MARQUES ONDOÑO,JOSE MANUEL IBARZ NADAL,974428307,622364790,
378,170250,CLUB ESPORTIU BISBAL BASQUET,CLUB ESPORTIU BISBA,BISBAL B.C. ESPORTIU,"Avinguda Mas Clarà, S/N","BISBAL D'EMPORDA, LA",Girona,636553171,972642198,bisbalbasquet66@gmail.com,,JOAN BASSA I HONTANGAS,JOAN FERRER JOFRE,972642198,636553171,www.bisbalbasquet.com
311,170001,CLUB BASQUET BLANES,CLUB BASQUET BLANES,BLANES C.B.,"CIUTAT ESPORTIVA DE BLANES. C/Mas Cuní, 43",BLANES,Girona,609609273,972355680,cbblanes@cbblanes.cat,,JOAN BURCET TORDERA,SIMON PEREZ MIRALPEIX,972355680,609609273,www.cbblanes.cat
3381,081610,C.B. BON PASTOR-FPBC,C.B. BON PASTOR-FPB,BON PASTOR C.B.,C/Sant Adria 134,Barcelona,Barcelona,722499159,,basquetbonpastor.fbc@gmail.com,,,Coordinació Bàsquet Bon Pastor,722499159,696481686,
407,250031,CLUB BASQUET BORGES-GARRIGUES,CLUB BASQUET BORGES,BORGES GARRIGUES C.B.,"RAMON LLULL,28","BORGES BLANQUES, LES",Lleida,649617764,,coordinadorbasquetborges@gmail.com,basquetborges@gmail.com,JOSEP MONICO MARTI,ARNAU FOLGUERA ,,609844712,www.facebook.com/basquetborgesgarrigues
146,080321,C.E.S. BOSCO-HORTA,C.E.S. BOSCO-HORTA,BOSCO-HORTA C.E.S.,passeig de la vall d'hebron 258,BARCELONA,Barcelona,652673029,934280250,boscohortabq@gmail.com,,MIQUEL ARMENGOL I BARNIOL,ALEXANDRE DIAZ,934080250,652673029,
227,081156,ESCOLA ESPORTIVA BRAFA (FUNDACIO BRAFA),E.E. BRAFA         ,BRAFA E.E.,artesania 75,BARCELONA,Barcelona,678655581,933590462,bgomez@brafa.org,secciobasquet@brafa.org,IGNASI TALÓ VALLS,Daniel Gómez Redorta,933590116,627856771,www.brafa.org
59,080081,CLUB BASQUET CABRERA,C.B. CABRERA       ,CABRERA C.B.,"PAVELLÓ POLIESPORTIU - CARRER RIERA, S/N",CABRERA DE MAR,Barcelona,646 774 728,,clubbasquetcabrera@gmail.com,clubbasquetcabrera@gmail.com,FRANCESC  VEA CASTELLS,Adrià Ros Rodríguez,,615 864 374,
2738,081538,CLUB DE BASQUET CABRILS,C.B. CABRILS,CABRILS CLUB DE BASQUET,"Passatge Eucaliptus, 7",CABRILS,Barcelona,650719405,000000000,info@cbcabrils.com;gfrowd3@gmail.com,gfrowd3@gmail.com,XAVIER MAURICIO JUAN,GUILLEM FROWD OLIVÉ,,650719405,https://www.facebook.com/search/top/?q=cbcabrils
2828,170302,UNIO ESPORTIVA CADAQUES,U.E. CADAQUES,CADAQUES UNIO ESPORTIVA,Lluis Aznarez S/N,CADAQUES,Girona,616657555,,basquetcadaques@gmail.com,,GEORGE IANCU,Francesc Roca Llongueras,,616657555,
405,250027,CLUB BASQUET CALAF,CLUB BASQUET CALAF ,CALAF C.B.,"C/ALCALDE MAS DOMÈNECH, 1",CALAF,Barcelona,629850356,938680169,cbcalaf@basquetcatala.org,,JOAN BUSQUET GARBI,MIQUEL PUIGPINOS BERTRAN,,619793854,
436,430018,CLUB BASQUET CALAFELL,CLUB BASQUET CALAFE,CALAFELL C.B.,AVG ALEMANYA 3  ( pavelló) ,SEGUR DE CALAFELL,Tarragona,619747495,,cbcalafell@hotmail.com,,FRANCIS PEREZ,JORDI OLIVELLA MUNNE,977000000,619862890,
125,080211,CLUB NATACIO CALDES,C.N. CALDES        ,CALDES C.N.,TORRE ROJA S/N  - ZONA ESPORTIVA LES CREMADES,CALDES DE MONTBUI,Barcelona,617460921,938650423,cncaldes@cncaldes.cat,,ROC  LLEIXÀ CASTELLSAGUÉS ,Laura Marin,938650423,617460921,www.cncaldes.cat
2421,170275,CLUB ESPORTIU CALDES DE MALAVELLA,C.E. CALDES DE MALA,CALDES DE MALAVELLA C.E.,"C/ Dr. Castany, 83-85",SALT,Girona,619708444,,josepmaria@totoci.net,,MARC SERRA NAVARRO,JOSEP MARIA JOU FERNANDEZ,972244645,619708444,www.cecaldes.cat
10,080013,CLUB BASQUET CALELLA,C.B. CALELLA       ,CALELLA C.B.,"Pavelló Municipal ""Parc Dalmau"" - Sant Jaume, s/n",Calella,Barcelona,688315103,00000000,info@cbcalella.com,comunicacio@cbcalella.com,JORDI  ALBÓ MONTSANT,Jordi Puig,,688315103,www.cbcalella.com
3478,430332,3X3 CAMBRILS,3X3 CAMBRILS,CAMBRILS 3X3,"Av. Diputacion 85, Bloque 1, Escalera 2, Pta. 12",Cambrils,Tarragona,611317104,,info@3x3cambrils.cat,,MARIAN POPESCU,Marian Popescu,,611317104,
438,430021,CLUB BASQUETBOL CAMBRILS,C.B. CAMBRILS,CAMBRILS C.B.,"Plaça de l'ajuntament, 1",CAMBRILS,Tarragona,670315381,000000000,cbcambrils@cbcambrils.org,administracio@cbcambrils.org,FRANCESC CANALDAS SALVADO,SERGI LOU PEIRON,,670315381,www.cbcambrils.org
316,170009,CLUB BASQUET CAMPDEVANOL,CLUB BASQUET CAMPDE,CAMPDEVANOL C.B.,"CTRA. N-260 KM.121 ""PAVELLÓ MERCÈ GUIX"" APARTAT DE CORREUS 46",CAMPDEVANOL,Girona,747456406,,cbcfederacio@gmail.com,clubbasquetcampdevanol@gmail.com,EVA LÓPEZ RODRÍGUEZ,Eva López Rodríguez ,,747456406,clubbasquetcampdevanol.cat
3376,170313,SECCIO ESPORTIVA FEC VALL DEL TER DE LA FUNDACIO ESPORTIVA CAMPRODON,F.P. CAMPRODON,CAMPRODON FUNDACIO PRIVADA,C/ MOLLÓ S/N,CAMPRODON,Girona,699315119,,fundacio@fundescam.cat,,JORDI MARTI TRUÑO,Carles Martínez,,699315119,www.fundescam.cat
3140,081577,CLUB BASQUET CAN PARELLADA,C.B. CAN PARELLADA,CAN PARELLADA CLUB BASQUET,"AVDA. BEJAR, 188, 5-3",TERRASSA,Barcelona,659668079,,toni.ros@hotmail.es,,TONI ROS CALSINA,TONI ROS CALSINA,937837437,659668079,www.basquetcanpa.com
6,080008,CLUB BASQUET CANET,C.B. CANET         ,CANET C.B.,"CATALUNYA, S/N",CANET DE MAR,Barcelona,937956402,000000000,cbcanet@gmail.com,,ENRIQUE ISARN MACIÀ,JORDI ORQUIN GUSTEMS,937956402,659235108,www.cbcanet.org
253,081295,CANOVELLES BASKET CLUB,CANOVELLES B.C.,CANOVELLES B.C.,PAB. TAGAMANENT AVENIDA DIAGONAL S/N,CANOVELLES,Barcelona,630892905,938494413,canovellesbc@canovellesbc.com,,CARLES CUXART VAQUER,JOSE FERNANDEZ,,682811965,www.canovellesbc.com
426,430004,C.B. CANTAIRES DE L'EBRE-DELTA,C.B. CANTAIRES DE L,CANTAIRES DE L'EBRE- DELTAC.B.,C/Alcanyis S/N,TORTOSA,Tarragona,636530043,977046214,cbcantaires@hotmail.es,,GUSTAVO HERNAN YUPANQUI SANDOVAL,ANNA OBIOLS,,647867421,www.cbcantaires.com
264,081327,CLUB DE BASQUET CANYELLES DE NOU BARRIS DE BARCELONA,C.B. CANYELLES DE N,CANYELLES DE NOU BARRIS,"FEDERICO GARCIA LORCA Nº30, 10.3.",BARCELONA,Barcelona,630513238,000000000,mjguti69@hotmail.com,,DAVID GUTIERREZ FERNANDEZ,DAVID GUTIERREZ FERNANDEZ,930164367,630513238,
60,080082,UNIO ESPORTIVA CAPELLADES,U.E. CAPELLADES    ,CAPELLADES U.E.,AVINGUDA MATIES GUASCH S/N ( POLIESPORTIU),CAPELLADES,Barcelona,655533375,000000000,juntauecapellades@gmail.com,,SERGIO FERNANDEZ HERNANDEZ,SERGIO FERNANDEZ HERNANDEZ,,744458367,
419,250105,CLUB BASQUET CAPPONT,CLUB BASQUET CAPPON,CAPPONT C.B.,"AV. DOCTORA CASTELLS, S/N. ESCOLA FREDERIC GODÀS",LLEIDA,Lleida,651468825,973201315,cbcappont@gmail.com,,MARGARIDA ALMIRALL I BORRELL,PABLO POCIÑO MERINO,,651468825,http://cbcappont.cat
61,080083,CLUB BASQUET CARDEDEU,C.B. CARDEDEU      ,CARDEDEU C.B.,"JAUME CAMPMAJOR, 30 (Pavello Mun Cardedeu)",CARDEDEU,Barcelona,677407923,,cb.cardedeu@basquetcatala.org,,BÁRBARA DORADO MARTÍNEZ,JORDI PALMADA TORRAS,,648559222,
40,080050,"SOCIETAT D'ESBARJO I CULTURA ""LA PRINCIPAL""",S.E. CASAL VILAFRAN,CASAL VILAFRANCA S.E.,"Rambla Nostra Senyora, 37",VILAFRANCA DEL PENEDES,Barcelona,667073975,000000000,tecnicabasquet@casal.org,juntabasquet@casal.org,FRANCESC XAVIER  FLORENTÍN SOLER,Pau Fuentes,,667073975,www.casal.org
62,080085,ASSOCIACIO ESPORTIVA CASP,A.E. CASP          ,CASP A.E.,"CASP, 25 / ROGER DE LLÚRIA, 19",BARCELONA,Barcelona,628513084,933170426,enricmateomolinos@gmail.com,marcmillans.23@gmail.com,MARIA TERESA ANDREU BELTRAN,MARC MILLAN,628513084,681292834,
325,170023,FOMENT DEPORTIU CASSANENC,F.D. CASSANENC     ,CASSANENC FOMENT DEPORTIU,PISCINA S/N FOMENT DEPORTIU,CASSA DE LA SELVA,Girona,609510058,942460034,arcadisitja@gmail.com,,ÀNGEL TEIXIDOR GÚELL,ARCADI SITJA PARADEDA,972463729,609510058,
11,080014,CLUB BASQUET CASTELLAR,C.B. CASTELLAR     ,CASTELLAR C.B.,APARTAT DE CORREOS 44,CASTELLAR DEL VALLES,Barcelona,636447766,,cbc@cbcastellar.com,,JOSEP  BORDAS GRANGEL ,ANNA GALVEZ GUTIERREZ,937159273,636447766,www.cbcastellar.com
229,081207,CLUB BASQUET CASTELLBISBAL,C.B. CASTELLBISBAL ,CASTELLBISBAL C.B.,C\AGRICULTURA S\N (ILLA ESPORTIVA),CASTELLBISBAL,Barcelona,692616394,,info@basquetcastellbisbal.cat,,CARLOS VALVERDE DIAZ,ADRIÀ CAMPRUBÍ ROVIRA,,636839489,www.basquetcastellbisbal.com
164,080364,CLUB BASQUET CASTELLDEFELS,C.B. CASTELLDEFELS ,CASTELLDEFELS C.B.,"Rambla Blas Infante, 23",Castelldefels,Barcelona,622643549,,administracio@cbcastelldefels.com,,ANTONIO OSUNA CASTILLO,RICARD GUIX ACIEN,606997578,606416190,www.cbcastelldefels.com
3514,081623,CENTRE CULTURAL I RECREATIU DE CASTELLDEFELS,,castelldefels ccr,CARRER CASTANYER S/N Pav. Can Roca,CASTELLDEFELS,Barcelona,645960943,,xmira@santoangel.org,xmira@santoangel.org,JUAN PATRICIO GARCIA GUIRRIEC,XAVIER MIRA BERDÚN,645960943,645960943,www.ccrbaixsud.com
20,080028,CLUB BALONCESTO CASTELLET,C.B. CASTELLET     ,CASTELLET C.B.,C/Barcelona s/n (PAVELLÓ ESPORTIU),SANT VICENÇ DE CASTELLET,Barcelona,691902391,,coordinador@cbcastellet.cat,administracio@cbcastellet.cat,SANTIAGO PEREZ CANTOS,JOAN CANOVAS,931869301,640051733,www.cbcastellet.cat
2526,170284,CLUB BASQUET CASTELLO,C.B. CASTELLO,CASTELLO BASQUET CLUB,"PL. FRANCESC MACIA, S/N",CASTELLO D'EMPURIES,Girona,607141177,,clubbasquetcastello@gmail.com,,JOSEP ROCA I CUFFI,JOSE ARANDA SALVADOR,,607141177,
119,080198,A.D. BASQUET C.A.T.,C.A.T.             ,CAT,"Pg.  Maragall, 411 6º2ª",BARCELONA,Barcelona,686120041,,montse@basquetcat.net,info@basquetcat.net,MONTSE VICENT RIERA,MONTSERRAT VICENT RIERA,933074850,686120041,www.basquetcat.net
3521,081624,ASSOCIACIO ESPORTIVA CASTELLVI DE LA MARCA,,catellvimarca,passeig dels estudiants s/n,Castellví de la Marca,,626781775,,ctvm.esports@castellvidelamarca.cat,bfcastellvidelamarca@gmail.com,,Abril Coral Moreno,,690043339,
3511,430333,CLUB ESPORTIU ELS PALLARESOS ES MOU,,CE PALLARESOS,Avinguda Catalunya 93,Els Pallaresos,Tarragona,607671333,,elspallaresosesmou@gmail.com,,JAVIER RODRIGUEZ GARCÍA,LUIS YEBRA LOPEZ,,627026576,
329,170038,CLUB BASQUET CELLERA,CLUB BASQUET CELLER,CELLERA C.B.,Dr Codina 92,"CELLERA DE TER, LA",Girona,644454291,000000000,info@unioesportiva.cat,coordinador@unioesportiva.cat,JORDI RABIONET GONZALEZ,XEVI CREUS COLL,972421308,679302174,www.unioesportiva.cat
174,080447,CLUB BASQUET CENTELLES,C.B. CENTELLES     ,CENTELLES C.B.,"RONDA ESPORTS, S/N",CENTELLES,Barcelona,621292844,000000000,cbcentelles2023@gmail.com,,JORDI FONTSECA PARERA,AINA LANCHO MUSSONS,,621292844,
986,080129,CLUB BASQUET CERDANYOLA,C.B. CERDANYOLA    ,CERDANYOLA C.B.,Av. Guiera 6 i 8 soterrani porta 4,CERDANYOLA DEL VALLES,Barcelona,935910438,,cbcerdanyolabasquet@gmail.com,,JOSEP MARIA BLANCO GUERRERO,DANIEL ZAMORA SERRANO,935910438,658588343,www.cerdanyolabasquet.com
63,080086,CLUB BASQUET FEMENI CERDANYOLA,C.B.F. CERDANYOLA  ,CERDANYOLA C.B.F.,"Avinguda Guiera, 6-8",CERDANYOLA DEL VALLES,Barcelona,609744170,935807625,cbfcerdanyola1980@gmail.com,secretaria.cbfcerdanyola1980@gmail.com,JORDI MESTRE GONZALEZ,Jordi Romeu,,666 769 566,https://basquetfemenicerdanyola.cat/
309,081389,ASSOCIACIO ESPORTIVA BASQUET MVP CERVELLO,A.E. MVP. CERVELLO ,CERVELLO AE MVP,calle sant joan 15,CERVELLO,Barcelona,607409627,000000000,coordinador@mvpcervello.org,,LAURA PI FORT,Manuel Paez,,607409627,
389,250002,CLUB BASQUET CERVERA,CLUB BASQUET CERVER,CERVERA C.B.,Apartat de Correus 145,CERVERA,Lleida,646703162,,info.basketcervera@gmail.com,,JOAN RAMON ALBAREDA SEGURA,GERARD MARSOL ESCOLÀ,,611462081,www.cbcervera.cat
251,081292,CLUB BALONCESTO CIC,C.B. CIC           ,CIC C.B.,"C/ FELIP II, 51-55 7e 2a",BARCELONA,Barcelona,619425439,,info@cbcic.cat,ferran510@hotmail.com,JOSEP MARIA SANS BLASCO,ALEIX MARTINEZ,,676 87 01 85,www.cbcic.cat
155,080347,CÍRCOL CATÒLIC DE BADALONA,CIRCOL CATOLIC BADA,CIRCOL CATOLIC BADALONA,"C\Sant Anastasi, 2",BADALONA,Barcelona,933844556,,areatecnica@elcircol.cat,,ANTONI FORTEZA BRUGUÉ,MIKI SEGURA ,933844556,690095089,elcircol.cat/basquet
2480,081438,ASSOCIACIO ESPORTIVA CIUTAT VELLA,A.E. CIUTAT VELLA  ,CIUTAT VELLA A.E.,"Carrer Sant Rafael, 38-42, baixos",BARCELONA,Barcelona,602259691,933022877,basquetaecv@aeciutatvella.cat,basquetaecv@aeciutatvella.cat,ISABEL  GARCIA BORDA,Anna Algueró Serraima,,602259691,www.aeciutatvella.cat
159,080353,CLUB BASQUET CIUTAT VELLA,C.B. CIUTAT VELLA  ,CIUTAT VELLA C.B.,"RIBERA, 8 entl. 1a.",BARCELONA,Barcelona,686562100,933106744,cb.ciutatvella@gmail.com,,MARIA REYES ZUDAIRE GALDEANO,ALEXANDER GIL ZIEGLER,932457361,657750670,
434,430014,ASSOCIACIO ESPORTIVA CLARET,ASSOCIACIO ESPORTIV,CLARET AE,Arquitecte Vives 105,VALLS,Tarragona,608826269,,aeclaret.valls@gmail.com,,IVAN SANAHUJA LÓPEZ,Pau Ferré Besora,,608 82 62 69,https://aeclaretvalls.org/
148,080329,UNIO ESPORTIVA CLARET,U.E. CLARET        ,CLARET UE,"SANT ANTONI M. CLARET, 49",BARCELONA,Barcelona,666733308,932701349,federacio@basquetclaret.cat,fusqui@gmail.com,ÁLVARO SITJES ACHA,RUBEN CHACON FUSCHINO (WhatsApp),930000000,666733308,www.basquetclaret.cat
172,080443,FUNDACIO PRIVADA CLAROR,F.P. CLAROR,CLAROR F.P.,C/SARDENYA 333,BARCELONA,Barcelona,934761390,934761391,coordinaciosafaclaror@gmail.com,,GABRIEL DOMINGO I ROGET,JOAN MATEU RODÓN,934761390,686074236,https://claror.cat/mes-que-fitness/esport-per-tothom/seccions-esportives/safa-claror/
3522,081625,CLUB DE BASQUET SANT GABRIEL DE RIPOLLET,CLUB DE BASQUET SAN,CLUB DE BASQUET SANT GABRIEL DE RIPOLLET,c/ Nord 32,ripollet,Barcelona,672191547,,coordinacio@bsgr.org,direccio@bsgr.org,DAVID  RAURELL MARTÍNEZ,ALBERT URIBE,,672191547,www.bsgr.org
191,080582,CLUB BASQUET COLL,CLUB BASKET COLL   ,COLL C.B.,"c/. Castellterçol, s/n.",BARCELONA,Barcelona,637099133,,gestioesportiva@cbcoll.cat,info@cbcoll.cat,JAUME DE LA CRUZ VENTURA,Raquel Alonso,,637099133,www.cbcoll.cat
197,080602,CENTRE CULTURAL I RECREATIU COLLBLANC-TORRASSA,A.E.C. COLLBLANC LA,COLLBLANC LA TORRASSA A.E.C.,C/ Rosich 12,"HOSPITALET DE LLOBREGAT,L'",Barcelona,934470348,934470348,aeccollblanc@aeccollblanc.com,dt@aeccollblanc.com,LUIS SÁNCHEZ SÁNCHEZ,MIGUEL ANGEL GOMEZ LEON,,687532306,www.aeccollblanc.com
3504,081621,SECCIO ESPORTIVA COMUNIDAD LA SALLE BONANOVA,,COMUNIDAD LA SALLE BONANOVA ,Passeig Bonanova 8,Barcelona,Barcelona,646339436,,basquet@cebonanova.lasalle.cat,,JORDI GIBERT GARDELL,Juan Couto,934182626,646339436,
2742,430314,CLUB BASQUETBOL CONSTANTI,C.B. CONSTANTI,CONSTANTI C.B.,AVDA. ONZE DE SETEMBRE,CONSTANTI,Tarragona,649798164,000000000,basquet.constanti@gmail.com,,JULIAN VALERO BARRENA,JULIAN VALERO BARRENA,977522641,649798164,
112,080185,CLUB BALONCESTO CORAZONISTAS,C.B. CORAZONISTAS  ,CORAZONISTAS C.B.,"CAPITA ARENAS, 66 5.2.",BARCELONA,Barcelona,658801070,000000000,cbcoras@hotmail.es,,JOAN OLIVERAS BARRULL,JORGE  GIMENO DE LA FUENTE,,658801070,
252,081293,CLUB BASQUET CORBERA,C.B. CORBERA       ,CORBERA C.B.,AVINGUDA JOSEP TARRADELLAS S/N,CORBERA DE LLOBREGAT,Barcelona,623190459,000000000,cb.corbera@basquetcatala.org,d.tecnicacbcorbera@gmail.com,ESTER  GIRÓ INFANTE,MIGUEL ÀNGEL LUQUE,,623190459,www.cbcorbera.com
192,080589,BASQUET FEMENI CORNELLA,B.F. CORNELLA      ,CORNELLA B.F.,C/ MARIA BENLLIURE S/N (POLIESPORTIU CAN CARBONELL),CORNELLA DE LLOBREGAT,Barcelona,654385344,000000000,federacio@basquetfemenicornella.com,,FRANCISCO LAO DEL VALLE,XAVIER PIZARRO GONZALEZ ,624225249,604951317,www.basquetfemenicornella.com
21,080030,CLUB BASQUETBOL CORNELLA,C.B. CORNELLA      ,CORNELLA C.B.,"C/ RUBIO I ORS, 158 1ª",CORNELLA DE LLOBREGAT,Barcelona,651901098,933773139,secretaria.basquetcornella@gmail.com,,JOSE MANUEL  HERNANDEZ GONZALEZ,Gustavo Oliver Fernández,934740282,653245639,www.cbcornella.com
275,081343,CREU ALTA SABADELL BASQUET CLUB,CREU ALTA-SABADELL ,CREU ALTA-SABADELL BASQUET,CARRETERA DE PRATS 2,SABADELL,Barcelona,628765194,937163340,info@creualtabasquet.cat,,ENRIC CAMPOS CHAURE,ROGER PÉREZ PAREJA,937163340,628765194,www.creualtabasquet.cat
3190,170309,CLUB BASQUET CRISTINENC,C.B. CRISTINENC,CRISTINENC CLUB BASQUET,av de la platja 82,castell d'aro,Girona,649933833,,cbcristinenc@gmail.com,,NARCÍS REMUS CONCHILLO,Narcís Remus,,649933833,www.cbcristinenc.com
245,081265,CLUB BASQUET CUBELLES,C.B. CUBELLES      ,CUBELLES C.B.,"AVDA. ONZE DE SETEMBRE, S/N",CUBELLES,Barcelona,626959561,,cbcubelles@gmail.com,femeniasan@gmail.com,JORDI  FEMENIA SEGURA,RAUL GIMENEZ SAVIRON,,606332487,www.cbcubelles.cat
2402,080101,ASSOCIACIO ESPORTIVA ESCOLAR COL·LEGI CULTURAL DE BADALONA,A.E.E. COL·LEGI CUL,CULTURAL A.E.E. COL·LEGI,C/TERMES 10,BADALONA,Barcelona,696185939,934644530,basquetculturalbadalona@gmail.com,,JOSE LUIS DIAZ CASTILLO,JOAQUIM SANCHEZ COSTA,,696185939,
2524,430281,ASSOCIACIO BASQUET CUNIT,A.B. CUNIT,CUNIT ASSOCIACIÓ BÀSQUET,ESTOCOLMO 8,CUNIT,Tarragona,695674558,901020364,basquetcunit@gmail.com,,VICTOR VACAS VELASCO,IAGO VACAS FERNANDEZ,977165677,620073334,
2679,081521,CLUB ESPORTIU DIAGONAL MAR,C.E. DIAGONAL MAR,DIAGONAL MAR C.E.,"LEPANTO , 326",BARCELONA,Barcelona,615318344,932211431,jordicasbai@hotmail.es,,MIQUEL DOMINGUEZ ESPAÑOL,JORDI CASANOVAS BAILE,934557738,615318344,www.cediagonalmar.com
46,080059,ASSOCIACIO ESPORTIVA DOSA BADALONA,A.E. DOSA          ,DOSA BADALONA A.E.,ALFONS XII 111,BADALONA,Barcelona,656902294,933996612,enric.cairo@salesians.cat,,SALVADOR RAMOS CANTOS,ENRIC CAIRÓ CÉSPEDES,933877254,656902294,
185,080511,BASQUET DRAFT GRAMENET,BASQUET DRAFT GRAME,DRAFT GRAMENET B.,"Lluis Companys, 9 3er. (Despatx 7)",SANTA COLOMA DE GRAMANET,Barcelona,626401787,000000000,draftgramenet@basquetcatala.org,,ALMUDENA ORIHUELA ALCAIDE,Marc Roset,,626401787,
2266,430052,ASSOCIACIO DE MARES I PARES D'ALUMNES EL CARME,S.E AMPA. EL CAR,EL CARME S.E.AMPA,TORRES JORDI Nº18 ESCB 4-3,TARRAGONA,Tarragona,681983590,977233499,elcarmebasquet1974@gmail.com,,MONTSERRAT MARTÍNEZ SAHUQUILLO,JORDI BONDIA PEDRA,,681983590,
140,080301,ASSOCIACIO CENTRE CULTURAL EL SOCIAL,C.C. EL SOCIAL,EL SOCIAL CENTRE CULTURAL,FONT VELLA 40,TERRASSA,Barcelona,669023284,937831917,basquet@elsocial.cat,,JOAN  MOLINÉ OLIVA,NÚRIA MOLINÉ COLOM,937831917,669023284,
3145,430322,ASSOCIACIO ESPORTIVA ESCOLAR ELISABETH DE SALOU,A..E.E. ELISABETH D,ELISABETH DE SALOU ASSOCIACIÓ ESPORTIVA,"MIQUEL MARTI I POL, 1",SALOU,Tarragona,619041787,,coordinacio.basquet.elisabeth@gmail.com,franmena@escolaelisabeth.com,INES COMPANYS ZAPATER,MARC TORRELL BUESO,977383851,619041787,
209,080813,CLUB BASQUET EMMA-GASSO,C.B.F. GASSO DE RIP,EMMA-GASSO CLUB BASQUET,"C/ Calvario 32 ,3o 1a",Ripollet,Barcelona,604463479,,femgasso@basquetcatala.org,,JOAN  MARTINEZ MACIAS,Charlie Alceda,,604463479,
3390,250140,BASQUET CLUB ENCAMP,B.C. ENCAMP,ENCAMP CLUB BASQUET,"ATMETLLER, 6 BAIXOS",VILA-.SESCA,Tarragona,376890361,,basket@andorra.ad,,ÒSCAR MORAGA MARTÍNEZ,,,,
2368,081400,CLUB ESPORTIU ESCOLA DEL CARME SABADELL,C.E. ESCOLA DEL CAR,ESCOLA CARME SABADELL,"Carrer Garcilaso, 36",Sabadell,Barcelona,667606869,,basquet@escoladelcarme.cat,victordearana@hotmail.com,ALBERT MERINO ALVAREZ,VICTOR DE ARANA PASTOR,,605841751,https://www.instagram.com/ceecsabadell?igsh=MXJ6NnRoOTZkbjdzeg==
341,170063, ESCOLA PIA D'OLOT ,A.E.E. ESCOLA PIA D,ESCOLA PIA D'OLOT A.E.E.,PLAÇA CLARÀ ,OLOT,Girona,696879987,972270915,epobasquet@olot.epiaedu.cat,,FERRAN SALA  XIFRE,Ferran Lucena Llagostera,972260212,696879987,
158,080352,ASSOCIACIO ESPORTIVA ESCOLAR ESCOLA PIA GRANOLLERS,ESCOLA PIA GRANOLLE,ESCOLA PIA GRANOLLERS,"AV/ SANT ESTEVE, 14",GRANOLLERS,Barcelona,629207672,938793318,pere.gomez@epiagranollers.cat,,XAVIER AMBROS ILLA,ABRIL ANDRÉS MIR,,606124865,
3075,081572,ESCOLA PIA IGUALADA,ESCOLA PIA IGUALADA,ESCOLA PIA IGUALADA,"Pl. Castells, 10",IGUALADA,Barcelona,628324262,,extraescolars.igualada@escolapia.cat,,JAUME ARS BOSCH,ROGER BARS CATALÀ,938032700,638102576,
104,080162,CLUB ESPORTIU ESCOLA PIA DE SABADELL,C.E. ESCOLA PIA SAB,ESCOLA PIA SABADELL CE,"CARRER ESCOLA PIA, 92",SABADELL,Barcelona,647791466,000000000,basquet@basquetpiasabadell.cat,,RAMON  CARRERA LLUELLES,DAVID MORENO GARCIA,,639241526,www.basquetpiasabadell.cat
3375,081609,SECCIO ESPORTIVA ESCOLA PIA SANT ANTONI,S.E. EPSA,ESCOLA PIA SANT ANTONI S.E.,"Ronda de Sant Pau, 72",Barcelona,Barcelona,934410605,,esports.epsa@santantoni.epiaedu.cat,josep.santamaria@santantoni.epiaedu.cat,EDUARD  MAZA GRAU,JOEL BELMONTE ,934410605,695165556,
2739,081539,ESCOLA PIA SARRIA,ESCOLA PIA SARRIA,ESCOLA PIA SARRIA,"IMMACULADA, 25-35",BARCELONA,Barcelona,669745522,000000000,carme.pla@sarria.epiaedu.cat,borja.costa@sarria.epiaedu.cat,NATÀLIA LLORENTE SANCHO,CARME  PLA,932120908,669745522,www.epsarria.es
381,170256,CLUB BASQUET ESCOLAPIES DE FIGUERES,C.B. ESCOLAPIES FIG,ESCOLAPIES FIGUERES C.B.,carrer PERALADA 55,FIGUERES,Girona,636098708,972673510,secretaria@cbescolapies.org,,MARTÍ  CARBÓ CARRETÉ,MANEL COMPTE BOSCH,,606064540,www.cbescolapies.cat
3276,081595,CLUB DEPORTIU ESPANYOL SENTIMENT PERICO,CDE ESPANYOL SENTIM,ESPANYOL SENTIMENT PERICO CLUB DEPORTIU,"PAU CLARIS, 176, 1.1.",BARCELONA,Barcelona,658801070,,sdespanyolbasquet@gmail.com,i.espiga@telefonica.net,ARNAU BAQUE ROIG,Jorge Gimeno,,658801070,www.sdespanyol.com
85,080131,CLUB BASQUET ESPARREGUERA,C.B. ESPARREGUERA,ESPARREGUERA C.B.,"Hospital, 37",ESPARREGUERA,Barcelona,647774811,937774811,info@cbesparreguera.cat,,JOAN  VENDRELL GIMENEZ,MARC RAVENTÓS FERRES,,627030736,www.cbesparreguera.cat
2553,081468,CLUB BASQUET NOU ESPLUGUES,C.B. ESPLUGUES,ESPLUGUES CLUB BASKET,"CEM LES MORERES - PLAÇA MORERES, S/N",ESPLUGUES DE LLOBREGAT,Barcelona,690838539,,be@basketesplugues.com,presidencia@basketesplugues.com,NOEMÍ REQUENA SINTES,XAVIER ARDANUY,,626123404,www.basketesplugues.com
2523,081454,CLUB ESPORTIU EUROPA SPORTS CENTER,C.E. EUROPA ESPORTS,EUROPA SPORTS CENTRE C.E.,"Av Pla del Vinyet, 110",SANT CUGAT DEL VALLÉS,Barcelona,619805398,936755263,basketball@eisbarcelona.com,,ESTHER HERRANZ FRIAS,RAMON VILLADELPRAT FONTANA,935898420,619805398,www.eisbarcelona.com
3383,430330,FARLAWSPORTS BASKET TEAM TARRACONENSIS CLUB DE BASQUET,FARLAWSPORTS B.T.T ,FARLAWSPORTS BASKET TEAM TARRACONENSIS CLUB DE BASQUET ,"AVINGUDA VIDAL I BARRAQUER, 22, 7.3.",TARRAGONA,Tarragona,977317662,,info@farlawsports.com,,DONATO PEÑA JULIAN,Lluís Oliach Ortiz,977317662,617538482,Farlawsports.com 
326,170024,CLUB BASQUETBOL FARNERS,CLUB BASQUET FARNER,FARNERS C.B.,Avinguda Salvador Espriu S/n Pavelló els Saioners,SANTA COLOMA DE FARNERS,Girona,722123463,972841146,coordinador@cbfarners.com,,JORGINA TOMAS CAMPASOL,MIQUEL URIBE FAIXEDAS,972841146,722123463,www.cbfarners.com
2899,081563,CLUB DE BASQUET FENIX ANDREUENC,C.B. FENIX ANDREUEN,FENIX ANDREUENC CLUB DE BÀSQUET,C/ SANTA COLOMA 39,Barcelona,Barcelona,611482740,,info@uesabasket.com,sergiomendez@uesabasket.com,MARC MOYA RUIZ,MARC MOYA RUIZ,664541031,664541031,www.uesabasket.com
328,170034,BASQUET CLUB FONTAJAU,BASQUET CLUB FONTAJ,FONTAJAU B.C.,PRUDENCI BERTRANA nº 5  3º-2ª,GIRONA,Girona,659884049,000000000,bcfontajau@gmail.com,fcondeluengo@gmail.com,FELIX CONDE LUENGO,FELIX CONDE LUENGO,,630272017,www.bcfontajau.com
2567,170289,ATLETIC CLUB BASQUET FONTCOBERTA,AT. CB FONTCOBERTA,FONTCOBERTA ATLÈTIC CLUB BÀSQUET,AVDA. DE LA PEDRERA,FONTCOBERTA,Girona,628318057,000000000,basquetfontcoberta@hotmail.com,,FELIP JULBE SERRA,FELIP JULBE SERRA,972580091,628318057,
2735,250134,FORÇA LLEIDA CLUB ESPORTIU,FORÇA LLEIDA CLUB E,FORÇA LLEIDA CLUB ESPORTIU,PRAT DE LA RIBA 113-117,LLEIDA,Lleida,665656565,000000000,gerencia@flleida.cat,gestio@flleida.cat,ALBERT ALIAGA COLOM,RAMON BORDAS MANJON,973233033,608025259,www.flleida.cat
358,170184,AGRUPACIO ESPORTIVA FORNELLS,A.E. FORNELLS,FORNELLS A.E.,C/ Riu,FORNELLS DE LA SELVA,Girona,630280453,972418150,basquet.aefornells@gmail.com,basquet.aefornells@gmail.com,FRANCESC  TRIOLA RIERA,LAURA ORTEGA PLAZA,972239225,630280453,
281,081352,CLUB FUTBOL FREDERIC MISTRAL,C.F. FREDERIC MISTR,FREDERIC MISTRAL C.F.,C/Pere II de Montcada 8,BARCELONA,Barcelona,650464686,932033575,gquerol@cimdestela.cat,,XAVIER ABALLÍ SANMARTÍ,GERARD  QUEROL BENEDITO,932031280,650464686,
143,080313,ASSOCIACIO DEPORTIVA ESCOLAR FUSTER,A.D.E. FUSTER      ,FUSTER A.D.,C/ Sant Jeroni n.38,SANTA COLOMA DE GRAMANET,Barcelona,933917954,933917954,basketfuster@gmail.com,,JOSÉ  PÉREZ GONZÁLEZ ,Antonio Ruiz ,,622013859,www.adefuster.com
142,080307,CLUB BASQUET LA GARRIGA,C.B. LA GARRIGA    ,GARRIGA C.B. LA,"FREDERIC MOMPOU, 13","GARRIGA, LA",Barcelona,690378631,938605369,club.basquet.la.garriga@gmail.com,,RAIMON NUALART MERCADÉ,RAIMON NUALART MERCADÉ,938716645,690378631,https://cblagarriga.cat/
36,080046,UNIO ESPORTIVA GAUDI,U.E. GAUDI         ,GAUDI U.E.,"BERGNES DE LAS CASAS, 21-23",BARCELONA,Barcelona,606995983,000000000,uegaudi@uegaudi.com,,ANTONI ALMASQUE VALENTI,VALERI MALAGELADA MARTI,,647464160,www.uegaudi.com
23,080032,CLUB BASQUETBOL GAVA,C.B. GAVA          ,GAVA C.B.,POMPEU FABRA 144-152,GAVA,Barcelona,681340897,000000000,direccio@basquetgava.cat,direccio@basquetgava.cat,XAVIER ESTEBAN,JOAN ALBALAT BO,936624691,695043621,www.basquetgava.cat
344,170088,GRUP EXCURSIONISTA I ESPORTIU GIRONI (GEiEG),GEIEG              ,GEIEG,"Carrer Empúries, 47",GIRONA,Girona,638743703,,basquet@geieg.cat,carlossuris@gmail.com,FRANCESC CAYUELA LOPEZ,CARLOS SURIS,972171182,638743703,www.geieg.cat
86,080132,CLUB ESPORTIU GELIDA,C.E. GELIDA        ,GELIDA C.E.,CONVENT 22,CASTELLVÍ DE ROSANES,Barcelona,647078577,000000000,cegelida@gmail.com,,CONRAD DAGÃ€ PALLARÃˆS,Santa Carrasco Macias,,647078577,
3513,170315,CLUB BASQUET GIRONA 2014 SAD,,GIRONA 2014 CLUB BASQUET,Av. del President Josep Tarradellas i Joan 22,GIRONA,Girona,872417316,,cnadal@basquetgirona.com,administracio@basquetgirona.com,MARC GASOL SAÉZ,CARLES NADAL,600231510,600231510,
2515,081448,GRAMENET BASQUET CLUB,GRAMENET B.C.,GRAMENET B.C.,C/ Ginesta s/n,SANTA COLOMA DE GRAMANET,Barcelona,634413022,000000000,gramenetbc@basquetcatala.org,,ALBERT  GODOY NAVARRO,ALBERT GODOY NAVARRO,000000000,634413022,
1,080001,CLUB BASQUET GRANOLLERS,C.B. GRANOLLERS    ,GRANOLLERS C.B.,"CARRER GIRONA, 222",GRANOLLERS,Barcelona,649348879,938401833,cbg@cbgranollers.cat,,JOAN  NADAL CASTELLS,TONI  JANE CASADEMUNT,938401833,620507508,www.cbgranollers.cat
319,170014,CLUB BASQUET GRIFEU DE LLANÇA,CLUB BASQUET GRIFEU,GRIFEU-LLANÇÀ C.B.,C/DOLORS FALCO Nº9 2a,LLANÇA,Girona,626834289,,ccllanca@gmail.com,areslopezluis@gmail.com,JOAN  COSTART BONAREU,LLUIS ARES LOPEZ,,692729404,cbgrifeu.cat
24,080033,CLUB BASQUET GRUP BARNA,C.B. GRUP BARNA    ,GRUP BARNA C.B.,"Carrer de la Llacuna, 170",BARCELONA,Barcelona,688265230,930026680,cbgrupbarna@gmail.com,coordinaciocbgrupbarna@gmail.com,SANTOS GARCIA YAGÜE,ELOY ACEDO SALIDO,688265230,690316114,www.cbgrupbarna.com
255,081304,CLUB BASQUET GUINARDO,C.B. GUINARDO      ,GUINARDO CB,"maspons i labros, 19 2on 1ª",BARCELONA,Barcelona,670202600,932311313,jmvbasquet1960@live.com,,JORDI PEREZ SAMITIER,JULI MONROIG VIVES,934464399,670202600,
2439,250089,ASSOCIACIO CONSELL LOCAL D'ESPORTS DE GUISSONA,A.C. LOCAL D'ESPORT,GUISSONA A.C.L.E.,"RAMBLA SEGADORS, 67",GUISSONA,Lleida, 621123542,973550184,acleguissona.basquet@gmail.com,acle@guissona.cat,PILAR  SUBARROCA TRESENS ,Miquel Farran Pich,,640684762,
37,080047,UNIO ESPORTIVA D'HORTA,U.E. HORTA         ,HORTA U.E.,"C/ FELIU I CODINA, 27",BARCELONA,Barcelona,934276479,,basquet@uehorta.cat,,FRANCISCO CARMONA SORIA,JOAN CARLES DIEZ,934276479,679097710,www.uehorta.cat
25,080034,ASSOCIACIO CENTRE CATOLIC DE L' HOSPITALET DE LLOBREGAT,CENTRE CATOLIC HOSP,HOSPITALET C.C. L',RAMBLA JUST OLIVERAS 34,"HOSPITALET DE LLOBREGAT,L'",Barcelona,690 07 16 15,932610761,direcciotecnica.catolic@gmail.com,,EDUARD ARRIETA AYMEMI,Francisco Cruz García,932610761,680697844,www.basquetentrecatolic.com
7,080009,CLUB BASQUET L'HOSPITALET,C.B. L'HOSPITALET  ,HOSPITALET CB L',"C/RIERA DE L'ESCORXADOR, 15","HOSPITALET DE LLOBREGAT,L'",Barcelona,933375672,,cbh@cbhospitalet.cat,fotos@cbhospitalet.cat,JOAN RAMON PATÓN I MATA,XAVIER GUIA,933375672,646400095,www.cbhospitalet.cat
338,170050,CLUB BASQUETBOL HOSTALRIC,CLUB BASQUET HOSTAL,HOSTALRIC C.B.,"C/ Baixada de l'Estació 6, 3r-2a",HOSTALRIC,Girona,652201381,669274692,cbhostalric@gmail.com,,CAROLINA SAURI LOPEZ,CARLES BLÁZQUEZ BERENGUER,,669274692,
65,080093,CLUB BASQUET IGUALADA,C.B. IGUALADA      ,IGUALADA C.B.,C/ CARLES RIBA S/N,IGUALADA,Barcelona,651193289,0000000000,cbi.area.secretaria@gmail.com,cbi.juntadirectiva@gmail.com,LIDIA ESTANY IBORRA,LÍDIA ESTANY,,651193289,www.clubbasquetigualada.cat
162,080362,CLUB BASQUET IMMA,CLUB BASQUET IMMA  ,IMMA C.B.,"XIFRE, 20 2-2",BARCELONA,Barcelona,696367660,000000000,infocbimma@gmail.com,,JAIRO PÉREZ ARRANZ,CRISTINA SAYOS TRAPOTE,932329975,696367660,www.cbimma.com
66,080094,CENTRE D'ESPORTS IPSI,C.E. IPSI,IPSI C.E.,"COMTE BORRELL, 243-249 - ESCOLA IPSI",BARCELONA,Barcelona,932558524,000000000,ce.ipsi@basquetcatala.org,xavier.sanchez@ipsi.cat,JOSEP ORIOL BLANCHER I PACH,XAVIER SÁNCHEZ I LÓPEZ,934449000,932558524,cesports.ipsi.cat
26,080035,JAC CLUB SANTS,JAC CLUB SANTS     ,JAC SANTS CLUB,Ferreria 18,BARCELONA,Barcelona,669400110,000000000,coordinaciogran@jacsants.cat,info1935@jacsants.cat,ALBERT  CASTELLS,SERGI MARCO,,697222614,www.jacsants.cat
3280,081597,CLUB ESPORTIU JESUITES EL CLOT,C.E. JESUÏTES EL CL,JESUÏTES EL CLOT C.E.,"Valencia, 680",Barcelona,Barcelona,933525052,,sandra.carballares@fje.edu,rafael.tejada@fje.edu,JOAQUIM MOLINA VALLEJO,Sandra Carballares Palma,,680859572,
3427,081612,CLUB ESPORTIU JESUITES GRACIA-KOSTKA,C.E. JESUITES GRACI,JESUITES GRACIA-KOSTKA CLUB ESPORTIU,RIERA CAN TODA 29-31,BARCELONA,Barcelona,932103605,,ruben.zubillaga@fje.edu,ruben.zubillaga@fje.edu,ANNA SEGURA SEGURA,RUBÉN ZUBILLAGA JIMÉNEZ,,640256760,www.kostka.fje.edu
2484,080249,"AMPA COL·LEGI JESUS, MARIA I JOSEP DE BARCELONA",AMPA JESUS MARIA I ,JESUS MARIA I JOSEP AMPA COL·LEGI,Carrer Pare Manyanet 5,BARCELONA,Barcelona,623512311,000000000,basquet.ampa@santandreu.manyanet.org,,XAVIER  MARGARIT SANTALLUSIA,Anastasia López Velilla,000000000,623512311,www.jmjbasquet.com
235,081238,CLUB JOVENTUT ESPORTIVA DE TERRASSA,J.E. TERRASSA      ,JET TERRASSA,"Pavelló Municipal Can Jofresa, C/Badalona, 4, 08223 Terrassa, Barcelona",TERRASSA,Barcelona,639 110 450,,jet@basquetcatala.org,secretaria@jeterrassa.com,XAVI COMAS CORRAL,JOSE JIMENEZ,,620873606,www.jeterrassa.com
2612,430295,ASSOCIACIO ESPORTIVA ESCOLAR JOAN XXIII DE BONAVISTA,AEE JOAN XXIII,JOAN XXIII AEE,CR. CATORZE S/N,TARRAGONA,Tarragona,646841119,977546471,m3cortes@gmail.com,factures@escolajoan23.com,JUAN PASCUAL FARRE VILLA,MARTA CORTES MARTINEZ,977542807,646841119,
3,080005,CLUB JOVENTUT BADALONA,CLUB JOVENTUT BADAL,JOVENTUT BADALONA CLUB,"C/ PONENT, 143-161",BADALONA,Barcelona,679516151,933999409,alopez@penya.com,alopez@penya.com,JUAN ANTONIO MORALES ABRISQUETA,AITOR LÓPEZ LÓPEZ,934602040,679516151,www.penya.com
3194,081589,CLUB JOVENTUT BADALONA S.A.D.,C. JOVENTUT BADALON,JOVENTUT BADALONA S.A.D. CLUB,"Carrer Ponent, 143-161",Badalona,Barcelona,934602040,,sonia@penya.com,,,,,,www.penya.com
2457,081429,CLUB BASQUET JOVENTUT CASTELLDEFELS,C.B. JOVENTUT CASTE,JOVENTUT CASTELLDEFELS CLUB BÀSQUET,"DOCTOR TRUETA, 64-66",CASTELLDEFELS,Barcelona,609610101,000000000,cbjoventutcastelldefels@gmail.com,jordioliver79@gmail.com,JESÚS  RODRÍGUEZ MORAL,JORDI OLIVER LLORACH,,620937572,www.cbjoventutcastelldefels.com
372,170237,CLUB ESPORTIU JOVENTUT CELRA,CLUB ESPORTIU JOVEN,JOVENTUT CELRA C.E.,C/PINS D'EN ROS S/N,CELRA,Girona,692593804,972493661,coordinaciocejc@gmail.com,,GLORIA RAMIREZ FAINER,Ariadna Jubany,972492983,692593804,WWW.JOVENTUTCELRA.COM
450,430182,CLUB JOVENTUT ULLDECONA,C. JOVENTUT D'ULLDE,JOVENTUT D'ULLDECONA,"C/ Vicent Aubà, 13",ULLDECONA,Tarragona,648781977,000000000,ulldeconabasquet@gmail.com,,MARIA JOSÉ BARREDA BELTRAN,JOAN SERRA,,648781977,www.cjubasquet.com
2618,081496,CLUB ESPORTIU JOVENTUT L'HOSPITALET,C.E. JOVENTUT L'HOS,JOVENTUT L'HOSPITALET C.E.,"C/ SANT RAFAEL, S/N (POL. MPAL . LES PLANES)","HOSPITALET DE LLOBREGAT,L'",Barcelona,669305636,934373436,cejlhbasquet@hotmail.com,,JUAN ANTONIO RAMOS PRUDENCIO,JUAN ANTONIO RAMOS PRUDENCIO,934373436,669305636,
175,080448,CLUB JOVENTUT LES CORTS,CLUB JOVENTUT LES C,JOVENTUT LES CORTS C.,NUMANCIA 142 (PAVELLÓ L'ILLA),BARCELONA,Barcelona,607082244,,club@joventutlescorts.cat,basquetfemeni@joventutlescorts.cat,AUGUSTO DE RULL GIOL,SERGIO FERNANDEZ DELGADO,934191148,607044954,www.joventutlescorts.cat
151,080340,CLUB BASQUET JOVENTUT SANT VICENÇ,C.B. JOVENTUT SANT ,JOVENTUT SANT VICENÇ C.B,Av. Ferrocarril S/N,SANT VICENÇ DELS HORTS,Barcelona,657878796,,santvibasquet@gmail.com,manuelruiz.bjsv@gmail.com,MANUEL RUIZ RODRÍGUEZ,LUÍS LIBERAL,,625592613,www.bjsv.org
3192,081587,CLUB BASQUET KOBRAS,C.B. KOBRAS,KOBRAS C.B.,"BEGUERDÀ, 31, 2.2.",BARCELONA,Barcelona,677112048,,cbkobras@gmail.com,,RICARD REIG FUENTES,POL NOBLOM GIBERT,,677112048,
3424,430331,CLUB BASQUET L'ALDEA,C.B. L'ALDEA,L' ALDEA CLUB BASQUET,"SANT RAMON, 43",L'ALDEA,Tarragona,678410815,,clubbasquetlaldea@gmail.com,jordi.torta1@gmail.com,JORDI TORTA BELBIS,JORDI TORTA BELBIS,,678410815,
336,170048,CLUB BASQUET L'ESCALA,CLUB BASQUET L'ESCA,L'ESCALA C.B,CARRER RUSINYOL 4,"ESCALA, L'",Girona,660643478,972772951,administracio@cblescala.com,,JOSEP  ANDRADES RUIZ,SERGI JAMBERT,972772951,613111045,www.cblescala.blogspot.com
2543,081462,CLUB ESPORTIU LA MARINA DE BARCELONA,C.E. LA MARINA,LA MARINA C.E.,"PASSEIG DE LA ZONA FRANCA 211, 8º 3ª",BARCELONA,Barcelona,630673584,000000000,celamarina@celamarina.com,,ANDREU FARRERA MOLINER,CARLOS FARRERA OCHOA,932966610,696201120,www.celamarina.com
2558,081473,CLUB BASQUET LA MERCE,C.B. LA MERCE,LA MERCE C.B.,"MUR, 36-40",MARTORELL,Barcelona,626538913,937748020,clubbasquetlamerce2@gmail.com,,LAURA DEL AMO PADRÓ,CRISTINA PADRÓ VILLALONGA,937748020,626538913,
442,430030,CLUB DE BASQUET LA SELVA,C.B. LA SELVA,LA SELVA C.B.,Carrer del Camí de l'Horta 39 (pav. Municipal),"SELVA DEL CAMP, LA",Tarragona,977845227,,de.cblaselva@gmail.com,,GENÍS VANDELLÒS PONT,Guillem Roige,,695413305,www.cblaselva.cat
2662,430304,ASSOCIACIO ESPORTIVA LA SENIA,A.E. LA SENIA,LA SENIA ASSOCIACIÓ ESPORTIVA,"c/ Rafalgueri, 9","SENIA, LA",Tarragona,688715182,977570168,aesportivalasenia@gmail.com,evagrcr@gmail.com,EVA  GRAÑANA CRUELLA,VICTOR VERGE CHILLIDA,,688715182,https://aesportivalasenia.wixsite.com/aels
3512,081622,FUNDACIÓ PRIVADA ESPORTIVA C.E. LAIETA,,LAIETA FPE,"C/ Pintor Ribalta, 2-8",Barcelona,Barcelona,655986055,,basquet@laieta.cat,,JAUME RIERA MENDOZA,Lluís Ferrer Cusola,934486350,655986055,www.basquetlaieta.cat
2901,081564,ASSOCIACIO ESPORTIVA LES CORTS,A.E. LES CORTS,"LES CORTS, A.E.",Trav. Les Corts 252-254,BARCELONA,Barcelona,665826578,934951893,basquet@aelescorts.cat,,MONTSERRAT MAS VILELLA,ALEX,934392704,665826578,www.aelescorts.cat
2557,081472,CLUB BASQUET LES FRANQUESES,C.B. LES FRANQUESES,LES FRANQUESES C.B.,"pavelló esportiu municipal, zona esportiva s/n",CORRO D'AVALL,Barcelona,615519247,938467836,xavi.resina@gmail.com,xavi.resina@gmail.com,ANGELES MARIA CARRASCO SOLA,XAVIER RESINA SERRA,,615519247,www.cblesfranqueses.cat
1085,080280,COL·LEGI LESTONNAC            ,COL·LEGI LESTONNAC ,LESTONNAC,PAU CLARIS 131,BARCELONA,Barcelona,677040711,000000000,esports@lestonnacbcn.org,esports@lestonnacbcn.org,MARIA DEL MAR PLA MANUEL-RIMBAU,PATRICIA COSTAS GONZÁLEZ,932159900,677040711,
3275,081594,CLUB BASQUET LA LLAGOSTA 2017,C.B. LA LLAGOSTA 20,LLAGOSTA 2017 CLUB BASQUET LA,"PINTOR FORTUNY, 1, 1.4.",La Llagosta,Barcelona,645260935,,cblallagosta@gmail.com,,MARIA JOSE GARCIA CABALLERO,Rosa Mª Carrillo Bernalte,,637912404,
330,170039,CLUB BASQUET LLAGOSTERA,C.B. LLAGOSTERA    ,LLAGOSTERA C.B.,Plaça Narcís Casas s/n o Av. de l'Esport s/n,LLAGOSTERA,Girona,620866077,,infocbllagostera@gmail.com,mvila1968@gmail.com,MONTSERRAT  VILA AÑON,Manel Ramírez Vilà,,608705726,
272,081340,CLUB BASQUET LLIÇA D'AMUNT,C.B. LLIÇA D'AMUNT ,LLIÇA D'AMUNT C.B.,AVINGUDA CORRO 14,Corró d'Avall,Barcelona,677683606,,cbllikidamunt.2019@gmail.com,,MONTSERRAT MATAMALA CONCHELLO,RAFA GUTIÉRREZ,,667401837,www.cbllicadamunt.cat
2407,081416,CLUB BASQUET LLIÇA DE VALL,CLUB BASQUET LLIÇA ,LLIÇA DE VALL BASQUET CLUB,"PASSEIG DE L´ESGLESIA, S/N",LLIÇA DE VALL,Barcelona,644220894,000000000,basquetllissadevall@gmail.com,coordinaciobasquetllissadevall@gmail.com,LOLI GARCIA CORVI,VICTOR LOPEZ CABALLERO,,678823043,www.basquetllissadevall.com
88,080134,CLUB BASQUET LLINARS,C.B. LLINARS       ,LLINARS C.B.,"Plaça Països Catalans, s/n",LLINARS DEL VALLES,Barcelona,636657208,938413545,cb.llinars@basquetcatala.org,,JAUME  MAJORAL GINESTA,QUIM GIMENEZ,938413545,683461199,www.cbllinars.com
361,170213,CLUB BASQUET LLIVIA,C.B. LLIVIA        ,LLIVIA B.C.,"C. DE L'ESPORT, 1-3",LLIVIA,Girona,676013533,872006963,cbllivia@hotmail.com,,ISMAEL MARTI VILLALONGA,ANNA LLORENS,972526101,676013533,www.cbllivia.com
3141,081578,FUNDACIO LLOR,FUNDACIÓ LLOR,LLOR FUNDACIO,C/LLUIS COMPANYS Nº 50,SANT BOI DE LLOBREGAT,Barcelona,667921577,933604140,montserratperis@fundaciollor.cat,,JOAQUIN MATILLA MARTÍN,MONTSERRAT PERIS DIAZ,936406000,667921577,www.fundaciollor.cat
2520,170283,CLUB BASQUET UNIFICAT LLORET,C.B.U. LLORET,LLORET CLUB BASQUET UNIFICAT,"SANT BONAVENTURA, 17 3-A",LLORET DE MAR,Girona,639765845,000000000,basquetlloret@gmail.com,,JORDI PALACÍN GRAU,MIKI HERNÁNDEZ,,629 58 60 68,www.basquetlloret.com
47,080060,SECCIO ESPORTIVA DE LLUISOS DE GRACIA,LLUISOS GRACIA     ,LLUISOS GRACIA,"Plaça del Nord, 7",Barcelona,Barcelona,932183372,932182058,basquet@lluisosdegracia.cat,,LAURA RAFEGAS ROSELL,ARNAU BOSCH (trucades a partir de les 17:00),,630 238 665,www.basquetlluisosdegracia.cat
333,170044,BASQUET CLUB MAÇANET SELVA,BASQUET CLUB  MAÇAN,MAÇANET SELVA B.C.,"c./  Puig Marí, núm.16",MAÇANET DE LA SELVA,Girona,636984291,,coordinaciobcm@gmail.com,,JOSEP MARIA BANCELLS DELOFEU,David,,639892853,
68,080098,CLUB BASQUET MANLLEU,C.B. MANLLEU       ,MANLLEU C.B.,"PASSEIG DEL TER, S/N",MANLLEU,Barcelona,626588158,,cbmanlleu@gmail.com,competicions.cbmanlleu@gmail.com,JOAN NOGUÉ COLOM,FRAN VAZQUEZ GAMERO,930000000,676531463,www.cbmanlleu.cat
3062,081569,CLUB BASQUET MANRESA 2015,CB MANRESA 2015,MANRESA 2015 C.B.,Carretera de Manresa a St Joan S/N,MANRESA,Barcelona,938721503,,base@basquetmanresa.com,i.perramon@basquetmanresa.com,XAVIER CLAVERO LOPERA,IGNASI  PERRAMON  PIÑA,938721503,616906115,
3356,081607,MANRESA CLUB BASQUET FEMENI 2021,C.B.F. MANRESA 2021,MANRESA 2021 C.B.F.,"C/MARTÍ I JULIÀ, 28 , 2n 3a",MANRESA,Barcelona,638184510,,manresacbf@gmail.com,xsisa@joviat.cat,NINA PONT ARNÁIZ,GERARD BARBÉ CLOTET,,660242248,manresacbf.com
943,080004,BASQUET MANRESA SAD,B. MANRESA SAD,MANRESA SAD BASQUET,PAVELLO NOU CONGOST,MANRESA,Barcelona,938721503,,basquetmanresa@basquetmanresa.com,,JOSEP M. HERMS CANELLAS,CARLES SIXTO FIGULS,938721503,600000000,www.basquetmanresa.com
3188,081584,ASSOCIACIO ESPORTIVA MANYANET MOLINS,A.E. MANYANET MOLIN,MANYANET MOLINS A.E.,Carrer Pintor Fortuny 4,Molins de Rei,Barcelona,659973841,,aemanyanetmolins@gmail.com,,ORIOL  MARÍN AUSIO,Xavier Armengou,,659973841,http://basquetmanyanetmolins.com
134,080261,CLUB BASQUET BOET MARESME MATARO,C.B. MARESME BOET M,MARESME BOET MATARÓ CLUB BÀSQUET,"C/ SANT CUGAT, 146",MATARÓ,Barcelona,610304922,937577887,cbboetmaresmemataro@gmail.com,,JOAQUIM NAVARRO FREIXAS,ALBERTO PEÑA GÓMEZ,937577887,610304922,www.maresmeboet3v.com
9,080011,CLUB ESPORTIU MARISTES ADEMAR,CLUB MARISTES ADEMA,MARISTES ADEMAR,"DEL TEMPLE, 8-10",BADALONA,Barcelona,647403266,933892732,cemademar@maristes.cat,,JOAN JOSEP PRATDEPADUA BUFILL,Iñaki Torralbo,933842154,647 40 32 66,https://www.badalona.maristes.cat/basquet-0
327,170026,CLUB ESPORTIU MARISTES GIRONA,CLUB ESPORTIU MARIS,MARISTES GIRONA C.E.,"Avda. Josep Tarradellas, 5-7",GIRONA,Girona,656423960,972245063,cemgirona@maristes.cat,,XAVIER  GARCIA GOMEZ,OLGA PRADERAS TELLO,972245063,656423960,
409,250046,CLUB ESPORTIU MARISTES MONTSERRAT LLEIDA,MARISTES MONTSERRAT,MARISTES MONTSERRAT C.E.,"AVINGUDA DE CATALUNYA, 3",LLEIDA,Lleida,639270540,973266799,angelgarra59@gmail.com,,MARI CARMEN RIUS SABADOR,Angel Garcia Raposo,,629038079,http://www.maristes.cat/cemlleida                                                   
153,080343,CLUB ESPORTIU MARISTES RUBI,C.E. MARISTES RUBI ,MARISTES RUBI C.E.,Magallanes 65 ,RUBI,Barcelona,692091897,000000000,basquet.cemrubi@maristes.cat,,VALENTÍ ALARCÓN VILARDELL,JUAN ANTONIO RODRIGUEZ ORDOÑEZ,935885022,692091897,http://cemrubi.maristes.cat
34,080043,CLUB ESPORTIU MARISTES SANT JOAN,C.E.M. SANT JOAN   ,MARISTES SANT JOAN C.E.,"VALENCIA, 370",BARCELONA,Barcelona,608855273,000000000,cemsantjoan@gmail.com,cemsantjoanbasquet@gmail.com,ALBERT SALAZAR MARTI,Gerard Sanz,608855273,644931957,www.maristes.org/imma
69,080099,CLUB ESPORTIU MARISTES SANTS - LES CORTS,C.E. MARISTES SANTS,MARISTES SANTS C.E.,"C. VALLESPIR, 160",BARCELONA,Barcelona,646505948,934909374,basquet.mslc@gmail.com,,SALVADOR CASAS I PEIRÓ,MARC PAGÈS SAUQUÉ,,646505948,WWW.CEMARISTES.CAT
111,080184,F.C. MARTINENC,F.C. MARTINENC     ,MARTINENC F.C.,TELÈGRAF 31 45 BAIXOS,BARCELONA,Barcelona,934364746,,bq@fcmartinenc.cat,,DAVID  ALONSO JULIÀ,MARC PALAU,934364746,657850914,www.fcmartinenc.cat
157,080350,CLUB BASQUET MARTORELL,C.B.. MARTORELL    ,MARTORELLCB,"Avda. Felix Duran i Canyameres, 1",MARTORELL,Barcelona,938 589 596,000000000,clubbasketmartorell@gmail.com,coordinaciocbm@gmail.com,LAURA AMAT GUAL,ANDREU CARDOS,937755111,662381342,cbmartorell.cat
138,080293,U.E. BASQUET MARTORELLES,U.E.B. MARTORELLES ,MARTORELLES U.E. BASQUET,C/ CAN PUIG S/N,MARTORELLES,Barcelona,607 37 29 52,,uebmartorelles@gmail.com,,DAVID SAFONT GIL,VICKY POYATOS i JUANMA PERAL,610 40 71 89,690 83 39 70,www.fb.com/UEBMartorelles
351,170136,"ASSOCIACIO DE MARES, PARES I TUTORS D'ALUMNES DEL COL·LEGI DR. MASMITJA",S.E. APA COL·LEGI D,MASMITJA DR. S/ESP. APA COL.LEGI,"Joan Maragall, 56",GIRONA,Girona,610916942,000000000,basquet@ampamasmitja.org,,ESTHER  MATEU IGLESIAS,Raul Masallé Ortega,610916942,610916942,www.basquetmasmitja.cat
99,080154,EL MASNOU BASQUETBOL,EL MASNOU BASQUETBO,MASNOU BASQUETBOL EL,"C/Ciutat de Sant Sebastia, 14","MASNOU, EL",Barcelona,697307263,000000000,emb@elmasnoubasquetbol.cat,,JOSEP HINOJOSA RUANO,MOHAMED DRIOUICH ELOUAT,935551836,697307263,www.elmasnoubasquetbol.cat
237,081240,CLUB BASQUET MASQUEFA,CB MASQUEFA,MASQUEFA C.B.,C/ Lluís Companys 14,MASQUEFA,Barcelona,644705014,,clubasquetmasquefa@gmail.com,,JUAN CARLOS APARICIO ARREBOLA,JOSE MARIA GARCIA     SALCEDO,937728763,600397584,
2681,081523,CLUB BASQUET MATADEPERA,C.B. MATADEPERA,MATADEPERA CLUB BASQUET,C/ ENRIC GENESCA S/N,MATADEPERA,Barcelona,647464928,000000000,basquetmatadepera@hotmail.es,,ALINA ARDERIU ANTONELL,ALINA ARDERIU ANTONELL,937300605,647464928,
19,080027,ASSOCIACIO ESPORTIVA CENTRE CATOLIC DE MATARO,A.E.C.C. MATARO    ,MATARO A.E.C.C.,LA RIERA 110,MATARÓ,Barcelona,937907763,937907763,uemataro@uemataro.com,,JOAN PI ROGER,XAVI MARTIN ESQUINAS,937907763,637454591,www.uemataro.com
3317,081601,CLUB DE FUTBOL MEDIONA,C.F. MEDIONA,MEDIONA C.F.,"PINS, 30",MEDIONA,Barcelona,938985105,,cfmediona1929@hotmail.com,,JOAN SAUMELL TUTUSAUS,Guillem Domínguez Font,,622513174,
114,080187,ASSOCIACIO ESPORTIVA MINGUELLA,A.E. MINGUELLA     ,MINGUELLA A.E.,C/Santa Madrona 75,BADALONA,Barcelona,934644198,934644198,aem@aeminguella.com,,JOAN GARCIA RIERA,RAMON PLA BEL,934644198,634571226,www.aeminguella.com
2758,081549,CLUB BASQUET MIR,CLUB BASQUET MIR,MIR CLUB BASQUET,BONAVISTA S/N,MONTCADA I REIXAC,Barcelona,693220610,,coordinacio@ubmir.cat,direccio_tecnica@ubmir.cat,JÚLIO ÁGUILA MARTÍNEZ,Joana ,931441606,693220610,www.ubmir.cat
3488,999088,MOLINET,,MOLINET,,,,,,,,,,,,
3061,081567,CLUB BASQUETBOL MOLINS DE REI 2015,C.B. MOLINS DE REI ,MOLINS DE REI  2015 CLUB BASQUETBOL,"ST ANTONI MARIA CLARET, S/N ",MOLINS DE REI,Barcelona,609197798,,gerencia@cbmolinsderei.cat,federacio@cbmolinsderei.cat,OSCAR  BONET I ARBOLÍ,Eduard Ubach Rodriguez,,609197798,www.cbmolinsderei.cat
413,250088,CLUB BASQUET MOLLERUSSA,CLUB BASQUET MOLLER,MOLLERUSSA C.B.,"C/ Tarragona, 15 (PAVELLÓ MUNICIPAL)",MOLLERUSSA,Lleida,651039020,973710898,administracio@basquetmollerussa.cat,direcciotecnica@basquetmollerussa.cat,PERE CODINA CAMARASA,ADRIÀ ZARAGOZÍ LORA,,665323179,www.basquetmollerussa.cat
4,080006,CLUB BASQUET MOLLET,C.B. MOLLET        ,MOLLET C.B.,"Avda. Caldes de Montbui, 1",MOLLET DEL VALLES,Barcelona,935703013,000000000,administracio@cbmollet.com,,CARLOS NUEZ BOIRA,OSCAR RECIO BARQUILLA,935703013,619540778,www.cbmollet.com
70,080103,ELS MONJOS BASQUET CLUB,ELS MONJOS B.C.    ,MONJOS B.C. ELS,Av.catalunya 78-82 1-2 ,SANTA MARGARIDA I ELS MONJOS,Barcelona,640890920,000000000,elsmonjosbc.junta@gmail.com,,JORDI MAIQUEZ MORA,Alberto Campos Diaz,,640890920,www.elsmonjosbc.com/
2674,430308,CLUB BASQUET MONTBLANC,CB MONTBLANC,MONTBLANC CLUB BASQUET,C/ Solans 51,MONTBLANC,Tarragona,72221072,977860819,cbmontblanc1@gmail.com,,SERGI MARTINEZ CRISOL,Jonatan Barrientos,,676345197,www.cbmontblanc.com
318,170013,CLUB CULTURAL ESPORTIU MONTESSORI-PALAU,C.C.E. MONTESSORI P,MONTESSORI C.C.E.,"Camí Vell de Fornells, 33",GIRONA,Girona,628070656,,martatorresruizz@gmail.com,coro@montessori-palau.net,ANA Mª JULIÀ BARNADAS,MARTA TORRES RUIZ,972417676,628070656,www.montessori-palau.net
15,080023,UNIO ESPORTIVA MONTGAT,U.E. MONTGAT       ,MONTGAT U.E.,"Plaça Mallorquines, 6 Local 2",MONTGAT,Barcelona,673698040,,uemontgat9@gmail.com,,FRANCESC VILLÀ RIVERO,ALBERT VILLÀ PARERA,,673698040,www.uemontgat.cat
231,081219,MONTMELO CLUB BASQUET,C.B. MONTMELO      ,MONTMELO C.B.,LUIS CHAMIZO 24,MONTMELO,Barcelona,670734534,,mcb@montmelocb.com,,MARGARITA FELIPO SUÑE,MIREIA OLIVER SALA,670734534,670734534,www.montmelocb.com
2552,081465,CLUB BASQUET VILA DE MONTORNES,C.B. VILA DE MONTOR,MONTORNES CLUB BASQUET VILA,GRAN VIAL 3 LES VERNEDES ,MONTORNES DEL VALLES,Barcelona,659840854,000000000,espinsports@gmail.com,gestiocbvm@gmail.com,LEONIDES  GARCIA CARO,XAVIER ESPIN SOLE,935722497,673633023,www.cbvilademontornes.es
71,080105,CLUB BASQUET MONTPEDROS- SANTA COLOMA DE CERVELLO,C.B. MONTPEDROS-STA,MONTPEDROS C.B.,Avinguda dels Països Catalans 1-3,SANTA COLOMA DE CERVELLO,Barcelona,647051471,,cbmontpedros@cbmontpedros.org,direcciotecnica@cbmontpedros.com,FRANCISCO JAVIER GRACIA MARTÍNEZ,Borja Royo,,675385041,www.cbmontpedros.org
452,430236,CLUB BASQUET MORA D'EBRE,CLUB BASQUET MORA D,MORA D'EBRE C.B.,"C/ Magdalena, 8",Móra d'Ebre,Tarragona,665616148,977402582,moradebrecb@gmail.com,,VICTOR RAMOS MELENDEZ,Joel SERRES FONT,977401907,636250795,
2253,430033,CLUB BASQUET MORELL,C.B. MORELL        ,MORELL C.B.,"Paissos Catalans, 6",EL MORELL,Tarragona,696105256,977842699,coordinacio@basquetmorell.cat,,ROSA MARIA SÁNCHEZ PÉREZ,JORDI FERRE GIL,977842700,696105256,www.basquetmorell.cat
289,081366,CLUB ESCOLA DE BASQUET NAVARCLES,C.E.B. NAVARCLES   ,NAVARCLES CLUB ESCOLA DE BASQUET,Carrer Joaquim Blume,NAVARCLES,Barcelona,669460581,,clubescolabasquetnavarcles@gmail.com,,LLUIS MORELL TORRA,JORDI BOVER GARZON,,669460581,instagram.com/cebnavarcles/?hl=es
29,080038,CLUB BASQUET NAVAS,C.B. NAVAS         ,NAVAS C.B.,c/ Pau Casals s/n,NAVAS,Barcelona,611430346,938391426,clubbasquetnavas@gmail.com,,FERRAN PRAT RIBA,XAVI TORREBLANCA,,677 41 24 93,
2562,081474,CLUB BASQUET NOU BADIA,C.B. NOU BADIA VALL,NOU BADIA DEL VALLES C.B.,VIA DE LA PLATA S/N,BADIA DEL VALLES,Barcelona,638182455,000000000,cbnoubadia@gmail.com,cbnoubadia@gmail.com,JESÚS MARTÍNEZ GARCÍA,JORDI SALVADÓ AGUSTIN  ,,622425395,
2740,081540,CLUB BASQUET NOU BARRIS,C.B. NOU BARRIS,NOU BARRIS C.B.,"CARRER DE BALTASAR GRACIÁN, 9",BARCELONA,Barcelona,623111990,000000000,basquetnoubarris@gmail.com,coordinaciobnb@gmail.com,SANTIAGO DE PEDRO  GABALDON,MARC CABERO OREÑA,,679806075,bnb.cat
2751,081544,ASSOCIACIO ESPORTIVA NOU BASQUET OLESA 2013,NOU BASQUET OLESA 2,NOU BASQUET OLESA 2013,Priorat s/n,OLESA DE MONTSERRAT,Barcelona,609813274,,direcciotecnica@nbolesa.cat,nbo@nbolesa.cat,JAVIER-JOSE ALIAGA DIAZ,FERRAN CUNILLÉ GALAN,691411482,609813274,https://www.nbolesa.cat
3331,081603,ASSOCIACIÓ ESPORTIVA NOU BÀSQUET SANT SADURNI 2020,A.E. NOU BASQUET SA,NOU BASQUET SANT SADURNI 2020 A.E.,"Passeig de Can Ferrer, s/n",SANT SADURNI D'ANOIA,Barcelona,601 50 44 23,,info@basquetsantsadurni.cat,,DAVID CAMPOS,JORDI PUJOL SABATÉ,,601 50 44 23,www.basquetsantsadurni.cat
2886,081556,CLUB NOU BASQUET VILANOVA 2013,NOU BASQUET VILANOV,NOU BASQUET VILANOVA 2013 CLUB,"Ronda Ibèrica, 66 (Pavelló Poliesportiu del Garraf)",VILANOVA I LA GELTRÚ,Barcelona,610225900,,club@cnbvilanova.com,info@cnbvilanova.com,DAVID MONTES MONTES,CARLES NAVARRO BASCUÑANA,938937700,626455416,www.cnbvilanova.com
383,170259,NOU CAULES CLUB DE BASQUET,NOU CAULES CLUB DE ,NOU CAULES C.B.,ctra. lloret s/n,VIDRERES,Girona,692593804,972851445,coordinaciocbnoucaules@gmail.com,noucaulesvidreres@gmail.com,MARTA  ROMAGUERA NIELL,Ariadna Jubany,667558264,692593804,www.noucaules.org
2678,081520,ODENA CLUB BASQUET,ODENA C.B.,ODENA C.B.,Pl. Mestre Vila Vell,ODENA,Barcelona,650524369,000000000,odenaclubbasquet@gmail.com,miquelorriolsbascones@gmail.com,MIQUEL  ORRIOLS BASCONES,SARA RAJA BALAGUER,938000000,616686160,
3475,250143,CLUB DE BASQUET OLIANA,C.B. D'OLIANA,OLIANA CLUB DE BASQUET D',"RONDA DE LA ZONA ESPORTIVA, S/N",OLIANA,Lleida,697201528,,basquetoliana@gmail.com,,ELISABET GARCÍA CAUBET,ELISABET GARCÍA CAUBET,,697201528,
314,170006,CLUB BASQUET OLOT,CLUB BASQUET OLOT  ,OLOT C.B.,"Carrer Brida, 2",OLOT,Girona,635781063,,cb.olot@basquetcatala.org,galmirall@gmail.com,MIQUEL PALMA GONZALEZ,GABRIEL ALMIRALL OLIVER,635781063,636607783,www.cbolot.org
369,170234,CLUB ESPORTIU ONYAR,CLUB ESPORTIU ONYAR,ONYAR C.E.,"Josep Aguilera i Marti, 2 ",GIRONA,Girona,606373329,000000000,ceonyar@gmail.com,,GUSTAVO PATOW,XAVIER  BORRÀS,972222155,606373329,www.ceonyar.cat
2714,081530,ASSOCIACIO DE MARES I PARES D'ALUMNES DE L'ESCOLA ORLANDAI,AMPA ESCOLA ORLANDA,ORLANDAI AMPA ESCOLA,"DOMINGUEZ I MIRALLES, 1",BARCELONA,Barcelona,619745580,932030935,sergigimenez@hotmail.com,basquet@orlandai.org,SERGI  GIMENEZ,SERGI GIMÉNEZ GRÀCIA,932030935,619745580,www.orlandai.org
2734,081535,CLUB BASQUET FEMENI OSONA,C.B.F. OSONA,OSONA CLUB BASQUET FEMENI,Plaça del Pare Millàn s/n,VIC,Barcelona,628410344,000000000,femeniosona@gmail.com,,INMACULADA  MAGEM I MARSÓ,JORDI FORTET FONTSECA,938861318,650656836,http://www.femeniosona.cat/ 
1004,080171,ASSOCIACIO ESPORTIVA ESCOLAR PAIDOS DE SANT FRUITOS DE BAGES,A.E. ESCOLAR  PAIDO,PAIDOS A.E.E.,AVINGUDA GIRONA 41-73,SANT FRUITÓS DE BAGES,Barcelona,629717175,938788351,ivetestany@escolapaidos.cat,,JOAN GIRONA RODRIGUEZ,IVET ESTANY BOIX,938760271,630494065,
347,170094,CLUB BALONCESTO PALAFOLLS,CLUB BASQUET PALAFO,PALAFOLLS C.B.,"Ramon Turró, 2",PALAFOLLS,Barcelona,661845519,937652276,cbpalafolls@gmail.com,ibanes73@gmail.com,IBAN BASCON GARCIA,ALEX SACRISTAN MORALES,,640642383,www.cbpalafolls.org
322,170018,BASQUET CLUB PALAFRUGELL,BASQUET CLUB  PALAF,PALAFRUGELL B.C.,"Av. de les Corts Catalanes, 3,",Palafrugell,Girona,617161994,,competicio@basquetpalafrugell.cat,bcpalafrugell@gmail.com,ESTER  AGUSTÍ FERRER,JOAN DANES ESPARCH,972303537,626155755,
354,170168,CLUB ESPORTIU PALAMOS,CLUB ESPORTIU PALAM,PALAMOS C.E.,"PLAÇA VILAROMA, 1",SANT JOAN DE PALAMOS,Girona,663943029,972318860,ce.palamos2@gmail.com,,JOAN ANTONI LOPEZ HUESO,ANDREU IRUELA REGINCÓS,611659710,611659710,www.cepalamos.cat
228,081165,ATHLETIC CLUB BASQUET PALAU DE PLEGAMANS,A.C.B. PALAU DE PLE,PALAU DE PLEGAMANS A.C.B.,Passeig de la carrerada 55,PALAU-SOLITA I PLEGAMANS,Barcelona,626654541,,directivapalau@gmail.com,,DESIREE GRIMA CALVO,Ángel Bejarano López,,620769546,
169,080427,SEC.ESP. DE BASQUETBOL DE LA FUNDACIO CULTURAL PRIVADA PALCAM,PALCAM             ,PALCAM FUNDACIO CULTURAL PRIVADA,"Travessera de Gracia,419",BARCELONA,Barcelona,690373162,,basquetpalcam@palcam.cat,,JESUS COMELLAS PEIRO,SANTI RODRÍGUEZ,934555914,688297344,www.palcam.cat
72,080107,CLUB ESPORTIU BASQUET PALLEJA,C.E.B. PALLEJA     ,PALLEJA CEB,"AV. ONZE DE SETEMBRE 1714, 1",PALLEJA,Barcelona,615632414,936631640,direccio.tecnica@basquetpalleja.cat,competicions@kromschroeder.es,MAGI BONSOMS GRAU,ANGEL ESTELA NIETO,936630243,615632414,www.basquetpalleja.cat
3189,081585,ASSOCIACIO ESPORTIVA BASQUETBOL LA PALMA DE CERVELLO,A.E.B. LA PALMA DE ,PALMA DE CERVELLÓ A.E.B. LA,c/ Canigó 9,La Palma de Cervelló,Barcelona,644279680,,aeblapalma@gmail.com,,JORDI SABATÉ I CADENAS,Marçal Fortuny Domènech,,644279680,aeblapalma.cat
2774,081553,ESPORT BASE DEL PAPIOL,E. BASE EL PAPIOL,PAPIOL ESPORT BASE DEL,Pau Casals,"PAPIOL, EL",Barcelona,657 01 41 51,,ebpapiolbasquet@gmail.com,,DAVID  ROMERO ALEJANDRE ,Didac Vidal,657 01 41 51,600 75 23 97,www.esportbasedelpapiol.com
392,250010,CLUB BASQUET PARDINYES,CLUB BASQUET PARDIN,PARDINYES C.B.,"C/Juneda, 31-3r-4a",LLEIDA,Lleida,637437465,973242571,cbpardinyes@hotmail.com,,PERE ROQUÉ ORÓ,IVAN MACARULLA CERVELLÓ,973000000,637437465,www.lleida.net/clientes/basket/
247,081274,ASSOCIACIO DE PARES D' ALUMNES DEL COL·LEGI PARE MANYANET,APA C. PARE MANYANE,PARE MANYANET A.C.,C/ TRAVESSERA DE LES CORTS 331,BARCELONA,Barcelona,605323399,000000000,cbmanyanetlescorts@gmail.com,gonzalezmorenocarla@gmail.com,DAVID SERRATE GARCIA,CARLA GONZÁLEZ,605323399,605323399,http://www.cbmanyanet.com
451,430184,ASSOCIACIO ESPORTIVA PARE MANYANET,PARE MANYANET A.E. ,PARE MANYANET A.E.,"C/ Pare Manyanet, 25",REUS,Tarragona,657348438,977330704,competicionsbmr@gmail.com,basquetmanyanet@gmail.com,RICARD ESPARZA LATORRE,MARINA RIBAS FORTUNY,,657348438,www.basquetmanyanetreus.com
90,080138,CLUB BASQUET PARETS,C.B. PARETS,PARETS C.B.,Avda. Francesc Macia s/n,PARETS DEL VALLES,Barcelona,658752770,,gestio.esportiva@cbparets.com,info@cbparets.com,ENRIC NUÑEZ PEREZ,Silvia Grande,,658752770,www.cbparets.com
3060,081566,CLUB DE BASQUET POBLENOU BARCELONA,AE PB9,PB9 ASSOCIACIÓ ESPORTIVA,"Passatge d'Aymà, 18",BARCELONA,Barcelona,658184498,,tecnic@basquetpb9.com,admin@basquetpb9.com,ALEIX BOQUÉ SALVADOR,RICARD SEVIL BUDESCA,,627439280,www.basquetpb9.com
30,080039,CLUB BASQUET PEDAGOGIUM,C.B. PEDAGOGIUM    ,PEDAGOGIUM C.B.,Neptú 6,BARCELONA,Barcelona,639541878,000000000,administracio@cbpedagogium.cat,,RAFAEL MURGADAS  VIDAL,EDUARD XANCÓ VILAS,,625341512,
2969,081565,FUNDACIO CATALUNYA LA PEDRERA,F.C. LA PEDRERA,PEDRERA FUNDACIO CATALUNYA,"C/ Oms i de Prat, 2",MANRESA,Barcelona,696001848,,basquetoms@omsideprat.cat,oriol_vilar@hotmail.com,GEMMA  VILASECA GONZÁLEZ,Oriol Vilarmau Fornies,,696001848,www.basquetoms.cat
410,250081,CLUB BALONCESTO PEÑA FRAGATINA,CLUB BASQUET PENYA ,PENYA FRAGATINA C.B.,"P.º de la Constitución, S/N (PABELLÓN CORTES DE ARAGÓN)",FRAGA,Lleida,648815839,974454011,cbpfragatina@gmail.com,,MARGARITA PIRLA SÁNVICEN,VICTOR ESPAÑOL BERENGUER,,648815839,
2494,081441,ESPORTIU CLUB PIERA,E.C. PIERA         ,PIERA ESPORTIU CLUB,"INDUSTRIA, 38",PIERA,Barcelona,620188786,,dt.pierabasquet@gmail.com,junta.basquetpiera@gmail.com,MARIA TERESA GUZMAN MOLINA,EMILI DIEZ I CASTELL,937789504,626825549,www.pierabasquet.cat
5,080007,UNIO DEPORTIVA I RECREATIVA PINEDA DE MAR,U.E.R. PINEDA DE MA,PINEDA DE MAR U.E.R.,"Carrer Barcelona, 33-35 (Pavelló)",PINEDA DE MAR,Barcelona,648602198,000000000,uerpineda@basquetcatala.org,,PAU PUJADAS PUIGNOU,GERARD FLUXÀ,,692 19 13 96,www.uerpineda.com
2453,250116,CLUB BASQUET PONTS,C.B. PONTS         ,PONTS C.B.,"c/ Marinada, 3",PONTS,Lleida,659027695,973462025,cbponts@gmail.com,,MIQUEL JUNYENT ARMENGOL,MIQUEL JUNYENT ARMENGOL,973461148,659027695,
374,170240,BASQUET PORQUERES ASSOCIACIO ESPORTIVA,BASQUET PORQUERES A,PORQUERES BASQUET A.E.,C/ MONTSENY S/N,PORQUERES,Girona,680467431,972570717,bporqueres@basquetcatala.org,,MIQUEL SALA TURRÓ,XAVI ALBERTÍ CASAS,972581807,638727752,
91,080139,CLUB BASQUET PRAT,C.B. PRAT          ,PRAT C.B.,"AV. PARE ANDREU DE PALMA, 9","PRAT DE LLOBREGAT, EL",Barcelona,934782269,934782269,fserrano@cbprat.cat,cbprat_stefy@hotmail.es,ARSENI CONDE RIERA,FERRAN SERRANO VENTURA,934782269,654476922,www.cbprat.cat
243,081260,ASSOCIACIO ESPORTIVA BASQUET PRATENC,A.E.B. PRATENC,PRATENC AE BASQUET,"C. Riu Guadalquivir, 1-13 Despatx 2","PRAT DE LLOBREGAT, EL",Barcelona,934781726,000000000,pratenc@basquetpratenc.com,victormachoguevara@gmail.com,VICTOR MACHO GUEVARA,Nerea Fulgencio,934787660,682208491,www.basquetpratenc.com
16,080024,AGRUPACIO BASQUET PREMIA,A.B. PREMIA        ,PREMIA A.B.,"C/ Camí del Mig, 62",PREMIA DE MAR,Barcelona,619 719 878,,coordinadors@abpremia.com,presidencia@abpremia.com,MONTSE GIRONA MADRID,MARIA - SAMU - ADRIÀ,,689 132 279,www.abpremia.com
110,080181,CLUB BASQUET PREMIA DE DALT,C.B. PREMIA DE DALT,PREMIA DE DALT C.D.B.,Passeig de can Balet s/n,PREMIA DE DALT,Barcelona,647986481,000000000,secretaria.cbpremiadedalt@gmail.com,,MARIA MERCÈ PRATS PITARCH,Laia Sanchez Palau,,+34 647986481,https://www.cbpremiadedalt.cat
2387,081412,CLUB BASQUET PUIG-REIG,C.B. PUIG-REIG     ,PUIG-REIG C.B.,C/ ARQUEBISBE  SESCOMES 3 3N 1R,PUIG-REIG,Barcelona,658089974,,basquetpuigreig@gmail.com,,DAVID CASAFONT CASALS,NEUS PARERA SURIÑACH,,679767276,www.basquetpuigreig.com/
2753,081547,Q BASQUET CLUB,QBASQUET CLUB,QBASQUET CLUB,tenerife 32,SANT CUGAT DEL VALLÉS,Barcelona,609861847,,q.areaesportiva@gmail.com,,ENRIQUE  SANCHEZ ARANDA,Albert Tolón Benito,609861847,609861847,qbasketsantcugat.com
360,170212,CLUB BASQUET QUART,QUART CB.          ,QUART C.B.,"AV LA BOBILA 69, BAIXOS 3a",QUART,Girona,654526615,,clubbasquetquart@hotmail.com,,EVA RIBAS JUNY,MARC SERRAT,,617399053,
3137,430321,CLUB BASQUET RAPITENC DELS ALFACS,C.B. RAPITENC DELS ,RAPITENC DELS ALFACS,"AVINGUDA DE LA CONSTITUCIÓ, 1 bis 3r.",LA RAPITA,Tarragona,659285059,,basquetrapitenc@gmail.com,,JUAN BAUTISTA BALAGUÉ VIDAL,RAMON ROSALES CASTELLA,,621203966,
2888,081558,CASA DE RUBI COLEGIO REGINA CARMELI,C.R.C. REGINA CARME,REGINA CARMELI CASA DE RUBI COLEGIO,"SANT SEBASTIA, 34",RUBI,Barcelona,600325187,,basquet@reginacarmeli.com,extraescolars@reginacarmeli.com,MELCHORA QUINTANA CALVO,SERGI TORREGLOSA,936990353,600325187,https://reginacarmeli.com
431,430009,REUS DEPORTIU,REUS DEPORTIU      ,REUS DEPORTIU,C/ GAUDI S/N,REUS,Tarragona,608116715,977331785,reusdeportiubasquet@gmail.com,reusdeportiubasquet@gmail.com,MÒNICA BALSELLS PERE,MARC OLIVART,,608116715,www.reusdeportiu.es
428,430006,CLUB NATACIO REUS PLOMS,CLUB NATACIO REUS P,REUS PLOMS C.N.,"Av. Marià Fortuny, 5 (Pavelló Joan Sirolla)",Reus,Tarragona,644874719,,administracio@cbsallereus.cat,presidencia@cbsallereus.cat,ISIDRE GUINJOAN AYMEMI,Ana Valverde,,644874719,www.cbsallereus.cat
73,080109,CLUB BASQUET RIBES,CLUB BASQUET RIBES,RIBES CLUB BASQUET,"C/ CRISTOFOL MESTRE, s/n",SANT PERE DE RIBES,Barcelona,647999183,,secretaria@basquetribes.org,,ELIZABET MOROS ALCARAZ,TONI SEGARRA,,647999183,www.basquetribes.org
367,170232,CLUB UNIO ESPORTIVA RIPOLL,CLUB UNIÓ ESPORTIVA,RIPOLL C.U.E.,"C/.PALLARS SOBIRÀ, 16.",RIPOLL,Girona,609012652,000000000,ueripoll@unioesportivaripoll.com,erabaseda@gmail.com,JOAN ROIG I GALLART,EUDALD RABASEDA ANGLADA,,609012652,
31,080040,CLUB BASQUET RIPOLLET,C.B. RIPOLLET      ,RIPOLLET C.B.,CARRER TAMARIT 32,RIPOLLET,Barcelona,680149727,,clubbasqripollet@gmail.com,,MODEST  SERRA VILA,Modest Serra / Pol Brualla ,P/627 72 15 58,M/680 14 97 27,www.clubbasquetripollet.com
3330,430328,CLUB ESPORTIU ROCABRUNA,C.E. ROCABRUNA,ROCABRUNA C.E.,"CAMÍ DE LA CREUETA, 3C BAIXOS 1",LES BORGES DEL CAMP,Tarragona,618625060,,rocabrunabasquet@gmail.com,,JOSEP LLUÍS SANCHO SAMPER,Ramon Josep Marimon Fontgibell,,690008207,
133,080260,CLUB BASQUET RODA,C.B. RODA          ,RODA CB,"carrer Bonamic 42, 1er B",RODA DE TER,Barcelona,652892362,000000000,eladimartinezc@hotmail.com,cbasquetroda@gmail.com,AGUSTI NAVARRO GOMEZ,ELADI MARTÍNEZ CASTELO,938540889,652892362,www.cbroda.cat
3277,081590,ASSOCIACIO BASQUET RONÇANA 2018,A.B. RONÇANA 2018,RONÇANA 2018 ASSOCIACIÓ BASQUET,"C/ MASPUJOLS, 9",SANTA EULALIA DE RONÇANA,Barcelona,661208025,,abronsana@gmail.com,,JUAN ANTONIO IBAÑEZ CARRILLO,JUAN ANTONIO IBAÑEZ CARRILLO,,661208025,abronçana.cat
201,080652,AGRUPACION DEPORTIVA RONDA,A.D. RONDA         ,RONDA AGRUPACION DEPORTIVA,"Ronda Sant Antoni de Llefià  10, Local 3",BADALONA,Barcelona,600535124,934603714,aeronda@gmail.com,,ALBERT TOMAS CANALIS,CARLES ESTEVE ESTEVE,934603714,600535124,www.ubllefia.com
273,081341,CLUB BASQUET ROQUETES,C.B. ROQUETES GARRA,ROQUETES GARRAF C.B.,RAMBLA SANT JORDI 28   2n 1a,VILANOVA I LA GELTRU,Barcelona,699986921,,presidencia.cbr@gmail.com,,ANGEL SANCHEZ PALLAROL,ULISES VICENTE,,665524955,
3084,081573,CLUB DE BASQUETBOL ROSELLA,C.B. ROSELLA,ROSELLA CB,"CTRA CAMI CA N'AMAT, 5",TERRASSA,Barcelona,665286129,,clubbasquetrosella@gmail.com,,CARLOS CAÑADA GAVIRA,CARLOS CAÑADA GAVIRA,937830318,665286129,
49,080063,CLUB BASQUET ROSER,CLUB BASQUETL ROSER,ROSER CB,"C/ALI-BEI, 120",BARCELONA,Barcelona,639143010,932653725,tecnicroser@hotmail.com,,XAVIER VIÑES  LOPEZ,JOSEP MARIA PUYAL  VERDENY,930000000,608299747,www.cbroser.cat
340,170054,CLUB DE BASQUET ROSES,CLUB BASQUET ROSES ,ROSES C.B.,CTRA. MAS OLIVA PAVELLÓ MUNICIPAL,ROSES,Girona,606 770 554,,basquetroses@gmail.com,,SIMÓN RODRÍGUEZ MORILLO,AINA GRATACÒS DONAT,,618784197,WWW.BASQUETROSES.CAT
2821,250137,CLUB BÀSQUET ROSSELLÓ,C.B. ROSSELLÓ,ROSSELÓ CLUB BÀSQUET,"Av. Verge del Pilar, 8",ROSSELLO,,608617485,,rossellobasquet@gmail.com,,MARCO ANTONIO  BRAGOS MORALES,GUILLERMO MESALLES VALDOVINOS,973000000,608617485,
28,080037,CLUB NATACIO SABADELL,C.N. SABADELL      ,SABADELL C.N.,"MONTCADA, 2",SABADELL,Barcelona,698940982,,basquet@nataciosabadell.cat,,CLAUDI MARTÍ MORTES,M. GEMMA SERRA PÉREZ,937136464,698940982,www.nataciosabadell.cat
2880,081555,SABADELL SUD CLUB BASQUET,SABADELL SUD C.B.,SABADELL SUD CLUB BÀSQUET,"Carrer Campoamor 93, despatx 7",SABADELL,Barcelona,629722814,,sabadellsudcb@hotmail.com,sabadellsudcb@hotmail.com,OSCAR  MONGE ARROYO,Responsable de competicions RAQUEL MENDEZ  681986269,,629722814,
3193,081588,ASSOCIACIO DE MARES I PARES D'ALUMNES DEL COL·LEGI SAGRAT COR SARRIA,AMPA COL·LEGI SAGRA,SAGRAT COR DE SARRIA AMPA COL·LEGI,"VINYAR, 26-28",BARCELONA,Barcelona,672095511,,esports@sagratcorsarria.com,ji.romeo@sagratcorsarria.com,ANGEL ANTONUCCI ARGUELLES,nacho romeo cebrian,,672095511,
3426,081614,CLUB ESPORTIU SAGRAT COR DIPUTACIO,C.E. SAGRAT COR DIP,SAGRAT COR DIPUTACIO C.E.,DIPUTACIO 326,BARCELONA,Barcelona,670726652,,esportsagratcor@hotmail.com,,DOLORS MORENO TARRES,Daniel Civit,,670726652,
3425,081613,ESCUELAS SALESIANAS SAN JOSE,E. SALESIANAS SAN J,SALESIANAS SAN JOSE ESCUELAS,"ROCAFORT, 42",Barcelona,Barcelona,629501334,,boscobq@naifarlleure.es,,JOAN CAMPS MARQUES,MATEO LOPEZ RUIZ,934231234,629501334,
32,080041,CLUB ESPORTIU LA SALLE GRACIA,C.E. LA SALLE GRACI,SALLE GRACIA C.E. LA,PLAÇA DEL NORD 14,BARCELONA,Barcelona,665945848,932170031,club.esportiu@gracia.lasalle.cat,basquet@gracia.lasalle.cat,ALEJANDRO JUAN ROJAS ESTEVE,ALFONSO FERNANDEZ,608300370,665945848,www.lasallegracia.cat
217,081025,CLUB BASQUET LA SALLE HORTA,C.B. LA SALLE HORTA,SALLE HORTA C.B.,"Doctor Letamendi, 63",Barcelona,Barcelona,650120129,,coordinaciocblsh@gmail.com,coordinacio@cblasallehorta.cat,MONTSERRAT IGLESIAS MANIBARDO,LAURA POCH CAMPABADAL,,618069247,https://www.cblasallehorta.cat/
12,080019,ASSOCIACIO ESPORTIVA LA SALLE MANRESA,ASSOCIACIO LA SALLE,SALLE MANRESA ASSOCIACIÓ LA,"La Pau, 109 -111",MANRESA,Barcelona,938771355,000000000,secretaria@sallebasquet.cat,,XAVIER SILVA GALERA,SERGI MUÑOZ,938771355,602211585,
429,430007,CLUB BASQUETBOL LA SALLE REUS,CLUB  BASQUET LA SA,SALLE REUS C.B. LA,"Plaça Pastoreta, 10",REUS,Tarragona,644874719,,administracio@cbsallereus.cat,presidencia@cbsallereus.cat,ARMAND LLAURADÓ VIDAL,Ana Valverde,,644874719,www.cbsallereus.cat
435,430015,ASSOCIACIO DE BASQUET LA SALLE TARRAGONA,A.B. LA SALLE TARRA,SALLE TARRAGONA A.B. LA,Av. Països Catalans s/n (Col·legi La Salle),TARRAGONA,Tarragona,629359023,977218604,info.absalle@gmail.com,unibasquettarragona@hotmail.com,JACOB ROVIRA GÓMEZ,VÍCTOR MAZARIEGOS ,,650774418,WWW.ABSALLETARRAGONA.CAT
234,081237,CLUB ATLETIC ESPORTIU SALLENT,C.A.E. SALLENT     ,SALLENT C.A.E.,PAVELLÓ MUNICIPAL VERGE DEL PILAR S/N,SALLENT,Barcelona,650111912,938373831,atleticesportiusallent@gmail.com,pavello@sallent.cat,MARC BRANSUELA CLARET,DIDAC H. BLASCO MARTIN,,667905048,
444,430034,CLUB BASQUET SALOU,BASQUET SALOU      ,SALOU C.B.,CARRER MILA,SALOU,Tarragona,660891864,977353783,coordinacio.cbsalou@gmail.com,cbsalou@hotmail.com,SANTIAGO BENITO GARCIA,AINHOA RODRIGUEZ RICO,977309211,630927189,
323,170020,CLUB BASQUET SALT,CLUB BASQUET SALT  ,SALT C.B.,"Pavelló Municipal d'Esports - Paisos Catalans, s/n",SALT,Girona,655311733,,clubbasquetsalt@gmail.com,,ALBERT MARUNY AYMERICH,ALBERT MARUNY AYMERICH,,655311733,
183,080472,CLUB BASQUET SAMA VILANOVA I LA GELTRU,C.B. SAMÀ VILANOVA ,SAMA VILANOVA I LA GELTRU C.B.,Ronda Ibèrica 66,VILANOVA I LA GELTRU,Barcelona,615075366,000000000,samavilanova@cbsamavilanova.cat,administracio@cbsamavilanova.cat,SERGI FENOLLOSA RUIZ,ÒSCAR ANDREU RUIZ,938143491,615075366,www.basquetsamavilanova.com
3434,081616,ASOCIACION CULTURAL DEL COLEGIO ALEMAN SAN ALBERTO MAGNO,A.C.C.A. SAN ALBERT,SAN ALBERTO MAGNO ASOCIACION CULTURAL DEL COLEGIO ALEMAN,"AVINGUDA JACINT ESTEVA FONTANET, 105",ESPLUGUES DE LLOBREGAT,Barcelona,699253027,,david.galceran@dsbarcelona.com,defrutos@dsbarcelona.com,,David Galcerán Fries,,699253027,
3462,081617,S.E. ESCUELAS SALESIANAS SAN JUAN BOSCO,S.E.E.S. SAN JUAN B,SAN JUAN BOSCO S.E. ESCUELAS SALESIANAS,"PG GAUDI, 2",SABADELL,Barcelona,670418499,,clubesportiu.sabadell@salesians.cat,,ANTONIO  RODRIGUEZ MUÑOZ,CARLES FERRAN ESTANY,,666022827,
3476,081620,UNION DEPORTIVA SAN MAURO,U.D. SAN MAURO,SAN MAURO UNION DEPORTIVA,"C/ Pilar, 15",Santa Margarida de Montbui,Barcelona,938042819,,basquetudsanmauro@gmail.com,basquetudsanmauro@gmail.com,JORDI SEGURA MORENO,POL SALANOVA OLIVA,,628324262,
2517,081450,UNIO BASQUET SANT ADRIA,U.B. SANT ADRIA,SANT ADRIA UNIO BASQUET,PASSEIG RAMBLETA S/N,SANT ADRIA DE BESOS,Barcelona,608401078,000000000,ubsa.seb@gmail.com,ubsa2006@gmail.com,IVAN CORRALES GORDO,IVAN CORRALES GORDO,934627804,608401078,www.somubsa.com
244,081261,CLUB BASQUET FEMENI SANT ADRIA ADEDI 104,C.B. FEMENI SANT AD,SANT ADRIA-ADEDI-104 CB F,"C/ LA BARCA, 25-29,2º-2ª",SANT ADRIA DE BESOS,Barcelona,635509177,933815239,info@femenisantadria.com,,JOSEP ANEAS   PRADES,JORDI MESTRE MOLINA,,651818960,www.femenisantadria.com
117,080194,CLUB BASQUETBOL SANT ANDREU,C.B. SANT ANDREU   ,SANT ANDREU C.B.,C/ Bonaventura Pedemonte s/n,SANT ANDREU DE LA BARCA,Barcelona,630 273 689,000000000,info@cbsantandreu.cat,direcciotecnica@cbsantandreu.cat,IGNACIO MINERO MAYAL,Josep Maria Peralta Garcia direcciotecnica@cbsantandreu.cat,,655 028 582,www.cbsantandreu.cat
2713,081529,CLUB ESPORTIU I SOCIAL DE SANT ANDREU,C.E.S. SANT ANDREU,SANT ANDREU C.E.I S.,"Joan Torras, 32",BARCELONA,Barcelona,606527464,000000000,secretariaceissa@gmail.com,,MANUEL  ORTEGA  RECA,DANIEL ARNALDA LOPEZ,933458395,606527464,www.basquetceissa.com
241,081251,ASSOCIACIO ESPORTIVA SANT ANDREU DE NATZARET,SANT ANDREU DE NATZ,SANT ANDREU DE NATZARET A.E.,"BATISTE I ROCA, 11  2º 2ª",BADALONA,Barcelona,606100327,933999235,sanatzaret@gmail.com,,JOSE PEREZ CARBALLO,ALBERT LOPEZ ESPINILLA,933999235,696820748,www.aesantandreunatzaret.com
2365,081401,CLUB BASQUET SANT ANTONI - POBLE SEC,C.B. SANT ANTONI-PO,SANT ANTONI-POBLE SEC CB,Nou de la Rambla 180 2n 2a,BARCELONA,Barcelona,651819281,000000000,esportiva@cbsaps.com,,CARLES CARDONA PEREZ,HECTOR PEÑARROYA,934433319,655361161,www.cbsaps.com
76,080114,CLUB BASQUET SANT BOI,C.B. SANT BOI      ,SANT BOI C.B.,"C/ Mn Pere Tarrés, 35-37 Poliesportiu La Parellada ",SANT BOI DE LLOBREGAT,Barcelona,627288366,,adm.basquetsantboi@gmail.com,,JUAN RONCERO CASTELLANO,Luismy Rodríguez,,627288366,www.basquetsantboi.com
121,080201,CLUB BASQUET LA SALLE SANT CELONI,C.B. LA SALLE SANT ,SANT CELONI C.B. LA SALLE,"CARRETERA CAMPINS, 11",SANT CELONI,Barcelona,630632062,000000000,clubbasquetsantceloni@hotmail.com,,MIQUEL SORROCHE CORTÉS,ANNA SORROCHE SIBINA,,687100997,
205,080802,CLUB BASQUETBOL SANT CLIMENT,C.B. SANT CLIMENT  ,SANT CLIMENT C.B.,"plaça de la vila, 1",SANT CLIMENT DE LLOBREGAT,Barcelona,609062551,000000000,basketsantcliment22@gmail.com,,ROSER FEU SALUD,ISABEL GAMEZ BLANCO,,609062551,cbsantcliment.wixsite.com/info
195,080599,UNIO ESPORTIVA SANT CUGAT,U.E. SANT CUGAT    ,SANT CUGAT U.E.,RAMBLA JAUME SABAT S/N - ZEM CENTRE - SOTERRANI PAV 2,SANT CUGAT DEL VALLÈS,Barcelona,600 89 37 46,,federacio.uesc@uesc.cat,,VICENÇ BELTRAN GONZÁLEZ,DAVID RODRIGUEZ TOSSO,935831424,600 89 37 46,www.uesc.cat
320,170015,CLUB BASQUET SANT FELIU,CLUB BASQUET SANT F,SANT FELIU C.B.,PAVELLO MUNICPAL LA CORXERA,SANT FELIU DE GUIXOLS,Girona,605243080,,cbsantfeliu@gmail.com,,JORDI PUJOL COLOMEDA,XAVIER COSTA BARRIGA,,686906587,www.cbsantfeliu.com
208,080809,CLUB BASQUET SANT FELIU DE CODINES,C.B. SANT FELIU COD,SANT FELIU DE CODINES C.B.,RONDA ESPORTS 4 CASA,SANT FELIU DE CODINES,Barcelona,651663556,000000000,cbsfc1946@gmail.com,,ANTONI LUQUE RODRIGUEZ,Christian Neriz Dominguez,,622184415,
122,080206,UNIO ESPORTIVA SANT FOST CLUB DE FUTBOL,U.D. SANT FOST     ,SANT FOST U.D.,C/ ROMANI 2,SANT FOST DE CAMPSENTELLES,Barcelona,620596045,000000000,uebasquetsantfost@hotmail.com,,RAMON MARIA RAMOS SEDEÑO,Isidro Chacón Orejuela,,661266388,
74,080110,ASSOCIACIO SANT FRUITOS D'ESPORTS,ASSOCIACIO SANT FRU,SANT FRUITOS (ASFE),CTRA DE LES BRUCARDES S/N,SANT FRUITOS DE BAGES,Barcelona,938788128,938788128,asfe3x3@gmail.com,,EVA  FABREGAS GALOBART,MARIUS BONJORN CHUMILLAS,938788128,624808765,
187,080566,CLUB ESPORTIU ESCOLA SANT GERVASI,C.E.E. SANT GERVASI,SANT GERVASI ESCOLA C.E.,"Sabadell, 41",Mollet del Vallès,Barcelona,669756797,000000000,santgervasi@santgervasi.org,hectorbaz@santgervasi.org,ALEJANDRO CERRILLO AGUILERA,Héctor Baz Redón,935795430,669756797,santgervasi.org/basquet
3274,081593,FUNDACIO PRIVADA SANT GERVASI,SANT GERVASI F.P.,SANT GERVASI FUNDACIO PRIVADA,"Sabadell, 41",Mollet del Vallès,Barcelona,669756797,,santgervasi@santgervasi.org,hectorbaz@santgervasi.org,ALEJANDRO CERRILLO AGUILERA,Héctor Baz Redón,626 35 57 69,669756797,http://www.fundaciosantgervasi.org/
371,170236,CLUB BASQUET SANT GREGORI,CLUB BASQUET SANT G,SANT GREGORI C.B.,"C/ DE BAIX, 47",SANT GREGORI (MUNICIPIO),Girona,620147614,972429079,coordinadorbase@cbsantgregori.cat,coordinadorbase@cbsantgregori.cat,JOAN FUENTES AMATE,ALBERT MOREJÓN,,620147614,www.cbsantgregori.com
337,170049,CLUB BASQUET SANT HILARI,CLUB BASQUET SANT H,SANT HILARI C.B.,"Plaça del Doctor Gravalosa, 4 (Casa de cultura)",SANT HILARI SACALM,Girona,619284306,,coordinadorscbsanthilari@gmail.com,,NEUS  ROURA PUJOL,BRISA SOLER,,657513427,
17,080025,CLUB ESPORTIU SANT IGNASI,SANT IGNASI ESPORTI,SANT IGNASI ESPORTIU,"CARRASCO I FORMIGUERA, 32",BARCELONA,Barcelona,679716663,936023004,pe.basquet.santignasi@fje.edu,antoni.matilla@fje.edu,JOSEP MARIA  RAMON,ANTONI MATILLA MARQUEZ,936023041,607160778,wwwsantignasi.fje.edu
92,080143,SECCIO ESPORTIVA SANT JOAN MATA,S.E. SANT JOAN MATA,SANT JOAN DE MATA SECCIÓ ESPORTIVA,"CINCA,  104 ,  1º 3º",BARCELONA,Barcelona,650597371,000000000,sjm@basquetcatala.org,sjmbasquetcoordinacio@gmail.com,XAVIER GOL  GIMENO,CARLES REYNALS RODRÍGUEZ,937447214,619875772,www.santjoandemata.net
203,080797,BASQUET CLUB SANT JOAN DESPI,B.C. SANT JOAN DESP,SANT JOAN DESPI B.C.,"Passatge Maluquer, 1, 2on6a",SANT JOAN DESPI,Barcelona,934779026,,coordinacioesportiva@basquetdespi.com,secretaria@basquetdespi.com,JOSE MARIA ROMAN GONZALEZ,RAFAEL GARCIA SUAREZ,934779026,600550635,www.basquetdespi.com
35,080044,CLUB ESPORTIU BASQUET SANT JORDI,C.E.B. SANT JORDI  ,SANT JORDI C.E.B.,"CARRER CERVANTES 75-77, ESCOLA MONTSERRAT",RUBI,Barcelona,660091393,935886569,toni.canton@cebsantjordi.cat,cebsantjordi@cebsantjordi.cat,JOAN GRANDES GARCÍA,TONI CANTÓN,935886569,660091393,www.cebsantjordi.cat
14,080021,CLUB BASQUET SANT JOSEP BADALONA,C.B. SANT JOSEP BAD,SANT JOSEP BADALONA C.B.,"PL. RECTOR RIFE, S/N",BADALONA,Barcelona,676599381,,info@cbsantjosep.cat,,MARC ORIOL MONTOLIU,Vidal Sabater Xufré,,607380966,www.cbsantjosep.cat
52,080068,CLUB BASQUETBOL SANT JOSEP OBRER,C.B. SANT JOSEP OBR,SANT JOSEP OBRER C.B.,"Av. Tomás Giménez, 2","HOSPITALET DE LLOBREGAT,L'",Barcelona,649506316,,direcciontecnicacbsjo@hotmail.com,,MANUEL ZURERA BERLANGA,JOAB MARTINEZ ARIAS,934381559,649506316,www.cbsjo.com
386,170263,ASSOCIACIO BASQUETBOL SANT JULIA DE RAMIS,A.B. SANT JULIA DE ,SANT JULIA DE  RAMIS A.B.,CARRER PUIG BLANC Nº8,SANT JULIA DE RAMIS,Girona,650414925,,a.b.santjuliaderamis@gmail.com,,SEBASTIAN TOLEDO MORAGÜES,SEBASTIÀ TOLEDO,,650414925,
93,080144,CLUB BASQUET SANT JUST,C.B. SANT JUST     ,SANT JUST CLUB DE BÀSQUET,passeig de la Muntanya 27,SANT JUST DESVERN,Barcelona,686797298,,dt@cbsantjust.com,,MAX HEROLD FRANCISCO,ADRIAN CISNEROS,,686797298,www.cbsantjust.com
124,080209,ASSOCIACIO SANT MARTI ESPORT,ASS. SANT MARTI ESP,SANT MARTI ESPORT ASSOCIACIO,"C/Binèfar, 10-14",BARCELONA,Barcelona,667752464,933057813,luisa@asme.es,,PERE LÓPEZ RUBIO,LUISA PARÍS JIMÉNEZ,933054959,667752464,www.asme.es
77,080115,SECCIO ESPORTIVA SANT MEDIR,S.E. SANT MEDIR    ,SANT MEDIR S.E.,"CARRER TOLEDO, 9      CASA",BARCELONA,Barcelona,650219149,000000000,jmgannau@msn.com,,JOSEP MARIA GANNAU      GALINDO,JOSEP MARIA GANNAU  GALINDO,934328092,650219149,www.basquetsantmedir.com
379,170251,CLUB BASQUET ESPORTIU SANT NARCIS,C.B.E. SANT NARCIS ,SANT NARCIS C.B.E.,"JOSEP AGUILERA I MARTI, 2 (Pav.Palau)",GIRONA,Girona,608693879,972242865,info@cbsantnarcis.cat,ladivt@hotmail.com,EROS JUAN ENNIO PANEQUE FERRARI,TONI VIDAL NIETO,972000000,608693879,www.cbsantnarcis.com
3428,081615,ASSOCIACIO ESPORTIVA SANT NICOLAU CANYELLES,A.E. SANT NICOLAU C,SANT NICOLAU CANYELLES A.E.,"PLAÇA 11 SETEMBRE, S/N",CANYELLES,Barcelona,938188676,,aesnbasquet@gmail.com,,ALFREDO NAVARRO BELMONTE,ALFREDO NAVARRO BELMONTE,938188676,627974290,
3268,081592,FUNDACIO SANT NICOLAU,FUNDACIÓ SANT NICOL,SANT NICOLAU FUNDACIÓ,JARDÍ 72-80,SABADELL,Barcelona,937451353,,basquet@cesantnicolau.com,,ARNAU  BONADA PELLICER,ANDREU CERVERA GALINDO,937451353,638422135,www.cesantnicolau.com
144,080314,CLUB DE BASQUET SANT PERE DE TERRASSA,C.B. SANT PERE DE T,SANT PERE DE TERRASSA  C.B.,"C/ Major de Sant Pere, 63",TERRASSA,Barcelona,603753237,937315135,secretaria@cbsantpereterrassa.com,,CRISTIAN PEREZ FERNANDEZ,ALEX LEIVA URDI,937315135,635052956,www.cbsantpereterrassa.com
446,430045,CLUB BASQUET SANT PERE I SANT PAU,C.B. SANT PERE I SA,SANT PERE I SANT PAU C.B.,BLOC VENEÇUELA,TARRAGONA,Tarragona,622112475,,cbspysp@gmail.com,,JORGINA  GUILLÉN FERNÁNDEZ,JORGINA GUILLÉN FERNÁNDEZ,,622112475,
2535,081459,CLUB BASQUET SANT POL 07,C.B. SANT POL 07,SANT POL 07 CLUB BASQUET,"Parc del Litoral, SN",Sant Pol de Mar,Barcelona,667596057,,lavallaltabasquetclub@gmail.com,clubbasquetsantpol07@gmail.com,ALBERT GOMEZ REVERTER,JORDI GOMEZ ADSERA,,626310381,basquetsantpol07.com
136,080287,SANT QUIRZE BASQUET CLUB,SANT QUIRZE B.C.,SANT QUIRZE B.C.,"PRIORAT, S/N",SANT QUIRZE DEL VALLES,Barcelona,937212327,937212327,sqbc@sqbc.cat,dtecnica@sqbc-cat,NATALIA BARRIS PEÑA,Sergi Puig ,937212327,660609660,www.sqbc.cat
131,080245,C.B. SANT RAMON NONAT,C.B. SANT RAMON NON,SANT RAMON NONAT C.B.,"TRAV. LES CORTS, 15-19 6º6ª",BARCELONA,Barcelona,649847592,000000000,basquet@santramonsagratcor.cat,joan.mar@telefonica.net,JOAN MARIN CALBA,JOAN MARIN CALBA,934404626,649847592,
168,080381,CLUB BASQUET SANTA COLOMA,CLUB BASQUET SANTA ,SANTA COLOMA C.B.,"Cultura, 43, 1-2",SANTA COLOMA DE GRAMANET,Barcelona,690685881,000000000,cbasquetsantacoloma@gmail.com,cbsc1984@gmail.com,JORDI VALLÈS LOIS,Toni Salvador Justicia,933855956,683 10 43 71,www.cbsantacoloma.com
310,081390,CLUB BASQUET SANTA EUGENIA DE BERGA,C.B. SANTA EUGENIA ,SANTA EUGENIA DE BERGA C.B.,"PLAÇA MAJOR, 1",SANTA EUGÈNIA DE BERGA,Barcelona,649066392,000000000,cbsantaeugenia@gmail.com,,RAQUEL ROMA,RAQUEL ROMA ,938855803,649066392 ,
317,170010,CLUB ESPORTIU SANTA EUGENIA DE TER,CLUB ESPORTIU SANTA,SANTA EUGENIA DE TER C.E.,"C/ Bassegoda, 17 bxs",GIRONA,Girona,692818365,972244830,cesetgirona@gmail.com,coordinacio.cesetgirona@gmail.com,XAVIER PEREZ FITA,MARC DELÓS ESTRACH,972244830,692818365,www.cesetgirona.com
206,080803,AGRUPACIO ESPORTIVA SANTA EULALIA,A.E.S.E.           ,SANTA EULALIA A.E.,"JACINT VERDAGUER, 15","HOSPITALET DE LLOBREGAT,L'",Barcelona,608268228,933326112,basquetaese2010@gmail.com,romiaese@hotmail.com,FERNANDO LEIVA CAMACHO,ROMINA GARCIA,933326050,608268228,
101,080156,CLUB BASQUET SANTA PERPETUA,C.B. SANTA PERPETUA,SANTA PERPETUA C.B.,"Av. Girona,7",SANTA PERPETUA DE MOGODA,Barcelona,605600448,935744908,info@cbsantaperpetua.cat,tresoreria@cbsantaperpetua.cat,JAVIER POLO DOMINGUEZ,Carlos Meroño Calderon,,605600448,www.cbsantaperpetua.cat
176,080450,C.B. SANTA ROSA DE LIMA HORTA,C.B. SANTA ROSA DE ,SANTA ROSA DE LIMA HORTA C.B.,"feliu i codina, 46 esc a baixos 1",BARCELONA,Barcelona,650338566,000000000,jfausma@hotmail.com,,JORDI FAUS MADRID,JORDI FAUS MADRID,650338566,650338566,
33,080042,CLUB BASQUET SANTFELIUENC,C.B. SANTFELIUENC  ,SANTFELIUENC CB,Santiago Rusinyol s/n,SANT FELIU DE LLOBREGAT,Barcelona,686071698,000000000,president@cbsantfeliuenc.com,president@cbsantfeliuenc.com,JOSE ANTONIO  DABAN JORDAN,VICTORIA CEPRIAN CORTIJO,686071698,686071698,www.cbsantfeliuenc.com
343,170082,CLUB POLIESPORTIU SANTJOANENC,CLUB POLIESPORTIU S,SANTJOANENC C.P.,PAPERERA TORRAS 2,SANT JOAN LES FONTS,Girona,659549457,972292237,cbgxcps@gmail.com,info@cpsantjoanenc.org,JOAN LLOP MOLINÉ,Joan Plantalech,619729727,659549457,
271,081337,CLUB BASQUET SANTPEDOR,C.B. SANTPEDOR     ,SANTPEDOR C.B.,CRTA NAVARCLES S/N PAVELLÓ MUNICIPAL RAFA MARTÍNEZ,SANTPEDOR,Barcelona,683249528, ,cbsantpedor@gmail.com,coordinaciocbsantpedor@gmail.com,MARIA JOSEFA  GOMEZ BAENA ,Ma José Gómez Baena,619097580,683249528,www.cbsantpedor.cat
357,170183,CLUB DE BASQUET SARRIA DE TER,C.B. SARRIA DE TER ,SARRIA DE TER C.B.,C/ FRANCESC CAMBÓ S/N,SARRIÀ DE TER,Girona,658664831,000000000,basquetsarria@gmail.com,,ANTONI GONZALEZ OLIVA,DOLORS VIDAL GUEROLA,,658664831,www.cbsarriadeter.cat
3384,081611,CLUB SARROCA BASQUET,C. SARROCA BASQUET,SARROCA BASQUET CLUB,"MARESME, 1",SANT MARTI SARROCA,Barcelona,611461078,,clubsarrocabasquet@gmail.com,,DAVID SOGAS DALMAU,CRISTOBAL GALLARDO LUNA,607795279,637009506,sarrocabasquet.com
404,250026,CLUB BASQUET SECA SANT PERE,CLUB BASQUET SECÀ S,SECA SANT PERE C.B.,"C/ La Pau, 24 ",LLEIDA,Lleida,677683766,000000000,basquetsecasantpere@gmail.com,,JOSEP MARIA GRAU CURRIUS,Norbert Charles sin,,620989193,
400,250019,ASSOCIACIO ESPORTIVA SEDIS-BASQUET,A.E. SEDIS         ,SEDIS AE,Cami Ral de Cerdanya 31,"SEU D'URGELL, LA",Lleida,973352072,973352072,secretaria@sedisbasquet.com,,JOSEP RIBES SIXTO,ANNABEL AURORA FERNANDEZ,973352072,606847289,www.sedisbasquet.com
135,080274,SEGLE XXI,SEGLE XXI          ,SEGLE XXI,"Rambla Guipúscoa, 27",BARCELONA,Barcelona,676541286,933237760,adm.segle21@basquetcatala.cat,,FERRAN ARIL DURAN,JAVIER TORRALBA LISO,933966645,676541286,
78,080118,CLUB DE BASQUET SENTMENAT,C.B. SENTMENAT     ,SENTMENAT C.B.,PAVELLO CAN SORTS,SENTMENAT,Barcelona,656367062,000000000,basquetsentmenat@gmail.com,,MARÍA ÁNGELES GONZÁLEZ LESMES,Eloi Cano Carabaca,,652479479,
2711,250131,CLUB BASQUET SEROS,C.B. SEROS,SEROS CLUB BASQUET,"Carrer Mossen Ferran 14 , 3er pis",LLEIDA,Lleida,638320739,973780584,basquetseros@gmail.com,,OSCAR PENA JOVÉ,OSCAR PENA i JOVÉ,973780797,638320739,
43,080056,SECCIO ESPORTIVA SANTA EULALIA (SESE),S.E.S.E.           ,SESE,"JOAN ALCOVER,6",BARCELONA,Barcelona,933570925,933570925,pavellosese@gmail.com,,JAUME FLORES RODRIGUEZ,Jaume Flores,933570925,933570925,www.sese.cat
3313,081599,CLUB ESPORTIU SFERIC BASQUET,SFERIC BÀSQUET S.E.,SFERIC BÀSQUET S.E.,"Faraday, 41",TERRASSA,Barcelona,931 30 57 42,,sferic@sfericbasquet.cat,sfericbasquet@gmail.com,JOAN LÓPEZ SUCARRATS,JOSE MANUEL SÁNCHEZ LÓPEZ,,655441557,www.sfericbasquet.cat
394,250013,SICORIS CLUB,SICORIS CLUB,SICORIS CLUB,C/ Doctora Castells s/n,LLEIDA,Lleida,651468825,973210933,cbcappont@gmail.com,,EDUARD ABELLA MAURICI,PABLO POCIÑO MERINO,973204329,651468825,
2325,170271,CLUB ATHLETIC SILENC,CLUB ATHLETIC SILEN,SILENC CLUB ATHLETIC,"Plaça dels esports, S/N",SILS,Girona,619503586,,silencbasquet@gmail.com,,ARIADNA  LOZANO SAURINA,David Gascon Trullols,,665806931,
100,080155,CLUB BASQUET SITGES,C.B. SITGES        ,SITGES C.B.,"Carrer Corral d`en Falç, 3-5, 12",SITGES,Barcelona,610488380,000000000,info@clubbasquetsitges.com,prsimot@gmail.com,PAU RAMON SIMÓ TARROCH,IGNASI VICENTE LOPEZ,938945056,673422974,www.clubbasquetsitges.com
207,080805,CLUB ESPORTIU SITGETA DE BASQUETBOL,C.E. SITGETA BASQUE,SITGETA C.E.,"SANTA BARBARA, 30. 2º.",SITGES,Barcelona,600635140,,esportiusitgeta@gmail.com,,RAFAEL ALCÁZAR ALQUEZAR,IGNASI VICENTE LOPEZ,,673422974,
103,080158,CLUB BASQUET SOLSONA,C.B. SOLSONA       ,SOLSONA C.B.,Carrer Joaquim Blume s/n (pavelló municipal),SOLSONA,Lleida,619522368,,cbsolsona@gmail.com,cbsolsona@gmail.com,RICARD MANZANO I PAYEROLS,JOSEP VILA I SANTAEULÀRIA,973480051,619522368,www.cbsolsona.com
2887,081557,ASSOCIACIO PEDAGOGICA STUCOM,A.P. STUCOM,STUCOM A.P.,"C/PALLARS, 484",BARCELONA,Barcelona,646062890,,ce.stucom@hotmail.com,,XAVIER CAPEL SANCHEZ,DAVID RISUEÑO ORTEGA,,646062890,
94,080145,SOCIETAT ATLETICA DE SURIA,S.A. SURIA         ,SURIA SOCIETAT ATLETICA,IGNASI ABADAL S/N,SURIA,Barcelona,608184793,938695843,sasbasquet@gmail.com,,JOSEP SERRAT BOSCH,BIEL JOFRE COLOM,,644343006,
423,430001,CLUB BASQUET TARRAGONA,C.B. TARRAGONA     ,TARRAGONA C.B.,JOSEP CATALA I RUFA S/N,TARRAGONA,Tarragona,977237558,977249736,cbt.gerencia@gmail.com,,NURIA GRADOS RODRÍGUEZ,JOSE RAMIREZ BELTRAN,977237558,630639987,www.cbtarragona.cat
403,250024,CLUB NATACIO TARREGA,CLUB NATACIO TARREG,TARREGA C.N.,AV.VERGE DE MONTSERRAT S/N,TARREGA,Lleida,973311040,973311040,cntarrega@cntarrega.org,miqueldomingonadal@gmail.com,CAROLINA  VIDAL GUINDOS,JORDI BOSCH GARCIA,973311040,651559674,www.cntarrega.com
50,080065,BASQUET CLUB TECLA SALA,B.C. TECLA SALA    ,TECLA SALA B.C.,Tecla Sala 18,"HOSPITALET DE LLOBREGAT,L'",Barcelona,632993850,,canvis@bcteclasala.cat,coordinador@bcteclasala.cat,JUAN ANTONIO PORTO ALARCÓN, MARIO SAEZ FREIRIA,,680744204,www.bcteclasala.cat
95,080146,AGRUPACIO ESPORTIVA TEIA,A.E. TEIA          ,TEIA A.E.,Pere Noguera s/n,TEIA,Barcelona,678761880,,teiabasquet@gmail.com,teiabasquet@gmail.com,ALBERT MATENCIO JAREÑO,ANNA MORENO CASTELLS,,678761880,
51,080066,CLUB NATACIO TERRASSA,C.N. TERRASSA      ,TERRASSA C.N.,AVDA.ABAD MARCET S/N,TERRASSA,Barcelona,674013777,937353639,vgomez@clubnatacioterrassa.cat,,JOAN HERRERA GRANADOS,VICENTE GOMEZ REYES,937352626,674013777,www.cnterrassa.es
455,430268,TGN BASQUET CLUB,TGN BASQUET CLUB   ,TGN B.C.,"GASOMETRE, 41-43, 2-D",TARRAGONA,Tarragona,606419269, ,ila@tinet.org,administracio@tgnbasquet.com,JOSEP MARIA  ADAM ANFRONS,IÑAKI LIARTE AGÜERA, ,606419269,www.tgnbasquet.com
128,080221,CLUB ESPORTIU THAU,C.E. THAU          ,THAU C.E.,Avinguda Esplugues 49-53,BARCELONA,Barcelona,669177360,932040597,basquet.thaubcn@fundaciocic.org,,JORDI PUIG POL,Jaume Almera Tella,932061514,669177360,
160,080354,CLUB BASQUET TONA,C.B. TONA          ,TONA CLUB BÀSQUET,JAUME BALMES S/N,TONA,Barcelona,670353084,000000000,cbtona@gmail.com,,JORDI  HORMIGO AMARO,Joan Espino,,610 85 11 29,www.cbtona.cat
2472,250117,CLUB BASQUET TORA,C.B. TORA          ,TORA C.B.,"C/ERES, S/N",TORA,Lleida,699687603,973473436,basquetora@gmail.com,,MARC SOLÉ REIXACHS,JORDI VILA DONCEL,,699687603,
2756,170300,CLUB ESPORTIU ESCOLA DE BASQUET TORDERA 2013,CEEB TORDERA 2013,TORDERA 2013 CEB,"Av. Països Catalans, s/n",TORDERA,Barcelona,696720440,,infoceebtordera@gmail.com,,SUSANNA  PARERA ARJONA,MIQUEL  ANGEL GRAU  SERRAT,,653229112,www.ceebtordera.net
108,080176,CLUB BASQUET TORELLÓ,C.B. TORELLÓ       ,TORELLÓ C.B.,PASSATGE DELS ESPORTS S/N,TORELLÓ,Barcelona,639902838,000000000,infocbtorello@gmail.com,,FRANCESC XAVIER SALA ESTÉVEZ,Jordi Sainz, ,639902838,www.cbtorello.com
2611,430296,TORREDEMBARRA BASQUET CLUB,TORREDEMBARRA BC,TORREDEMBARRA C.B.,Pavelló Sant Jordi C/ Rosella s/n,TORREDEMBARRA,Tarragona,608630504,977644619,torredembarrabasquetclub@gmail.com,,ALBERT  HIDALGO GARCIA,MANUEL TORRES,,678288180,www.torredembarrabc.com
2440,250112,CLUB BASQUET TORREFARRERA,C.B. TORREFARRERA  ,TORREFARRERA C.B.,"Avda. EUROPA, 90",LLEIDA,Lleida,616016300,,cbtorrefarrera@gmail.com,,ANA BELEN TORRES HOYAS,ANA BELEN TORRES HOYAS,,616016300,
441,430029,ASSOCIACIO DEPORTIVA TORREFORTA,A.D. TORREFORTA    ,TORREFORTA A.D.T,Casal esportiu Riu Clar-Torreforta s/n,TARRAGONA,Tarragona,610473313,,presidencia@adtorreforta.com,competicio@adtorreforta.com,ROBERT  HERNANDEZ RAYA,ANTONIO MARTÍN RODRIGUEZ,977507108,659126835,www.adtorreforta.com
412,250084,CLUB BASQUET TORREGROSSA,C.B. TORREGROSSA   ,TORREGROSSA CLUB BÀSQUET,"PLAZA CANALEJAS, 1",TORREGROSSA,Lleida,646055617,,coordinaciocbt@gmail.com,,ALBERT SETÓ TARRAGÓ,ORIOL FARRAN,,677406902,
331,170040,BASQUET CLUB TORROELLA,C.B. TORROELLA     ,TORROELLA C.B.,RONDA PAU CASALS S/N ( PAVELLÓ MUNICIPAL),TORROELLA DE MONTGRI,Girona,615060900,972767124,info@bctorroella.cat,,JOAN MANEL FRAU CARRERAS,CAROLINA REALE,,628 592 992,www. bctorroella.cat
334,170045,UNIO ATLETICA TOSSA,UNIO ATLETICA TOSSA,TOSSA U.A.,Carretera Llagostera s/n,TOSSA DE MAR,Girona,636203247,,unioatleticatossa83@gmail.com,,RICARD  SALVADOR,Marc A. Veciana,,648744706,
406,250028,CLUB DE BASQUET TREMP,CLUB BASQUET TREMP ,TREMP B.C.,APARTAT DE CORREUS 135,TREMP,Lleida,628006513,,cbtremp@gmail.com,,CESAR FERNANDEZ RIOS,Carina Puiggròs Farré,,620693524,
3373,081608,CLUB DE BASQUET TURO DE LA PEIRA,CB TURO DE LA PEIRA,TURO DE LA PEIRA CLUB BASQUET,"Passeig Fabra i Puig, 302 6º 4ª",BARCELONA,Barcelona,662442225,,cbturo@gmail.com,cbturo@gmail.com,JAVIER TÉLLEZ CASAJUS,AITOR TELLEZ ALSINA,,634561551,
3320,430327,CLUB DE FUTBOL TURO-MONTROIG,C.G. TURO-MONTROIG,TURO-MONTROIG CLUB DE FUTBOL,"CTRA. REUS - CONSTANTI, S/N - COL·LEGI TURÓ",CONSTANTI,Tarragona,644081453,,stechbba@gmail.com,,GERARDO MENESES BENITEZ,JORGE MAURO,,644081453,
2458,170277,UNI GIRONA CLUB DE BASQUET,UNI GIRONA CLUB DE ,UNI GIRONA C.B.,"AVGDA.JOSEP TARRADELLAS I JOAN, 22-24",GIRONA,Girona,972647866,,info@unigirona.cat,presidencia@unigirona.cat,CAYETANO PEREZ ORTIZ,BRU ROVIRA BURGUÉS,972410423,685134611,www.unigirona.cat
2624,170290,CLUB BASQUET LA VALL D'EN BAS,CB LA VALL D'EN BAS,VALL D'EN BAS CB LA,"Bosc de Cal Ferrer, s/n",Joanetes,Girona,606 35 36 71,,competicions@cbvalldenbas.cat,coordinacio@cbvalldenbas.cat,FRANCESC XAVIER  FONT RUIZ,Jordi Font Prat,,676 34 42 19,http://cbvalldenbas.cat
3382,170314,CLUB BASQUET VALL DEL TERRI,CB VALL DEL TERRI,VALL DEL TERRI CLUB DE BASQUET,"C/ MOSSÈN JACINT VERDAGUER, 4",CORNELLÀ DEL TERRI,Girona,697522634,,cbcornella3@gmail.com,,NÚRIA CANET CORTADA,JUDITH MENA SILVA,,697522634,
3273,081591,VALLDOREIX FUTBOL CLUB,VALLDOREIX F.C.,VALLDOREIX FUTBOL CLUB,"ESTEVE PILLA, 13 BAIXOS",Sant Cugat del Vallès,Barcelona,660943019,,javigmb@gmail.com,santigmb@gmail.com,JORGE GONZALEZ,JAVI GARCIA-MUSSONS,,660943019,
408,250040,CLUB ESPORTIU CEP,C.E. CEP VALLFOGONA,VALLFOGONA CEP C.E.,"Carrer Estació, 35",VALLFOGONA DE BALAGUER,Lleida,600779824,973432319,cepvallfogona2023@gmail.com,,GERARD  PRAT GUILLAUMET,David Robles Soria,,600779824,www.cepbasquet.org
2425,081418,CLUB BASQUET VALLIRANA,C.B. VALLIRANA     ,VALLIRANA C.B.,"CARRER PUIGMAL, NUM. 17",VALLIRANA,Barcelona,647573673,,club@basquetvallirana.cat,,MANEL MARTINEZ ACOSTA,CARLES MURALL ESVERTIT,,672429274,
424,430002,CLUB BASQUET VALLS,C.B. VALLS         ,VALLS C.B.,"Pavello Joana Ballart, C/ Vilar s/n",VALLS,Tarragona,654333802,977600010,cbvalls@cbvalls.com,lluiscuest@hotmail.com,MAGI MALLORQUI PLANA,LLUIS CUESTA CATALA,977600010,654333802,www.cbvalls.com
3464,081619,FUNDACIO VEDRUNA CATALUNYA EDUCACIO,S.E. VEDRUNA GRACIA,VEDRUNA CATALUNYA-VEDRUNA GRACIA ,Carrer Gran de Gràcia 236,Barcelona,Barcelona,607641007,93 218 82 69,vedrunagraciabasquet@gmail.com,vedrunagraciabasquet@gmail.com,,Pau Ubia van Spaandonk,,607641007,https://www.basquetvedruna.cat/
2890,170306,ASSOCIACIO ESPORTIVA ESCOLAR ESCOLA VEDRUNA DE GIRONA,AEE VEDRUNA GIRONA,VEDRUNA GIRONA AEE,BARCELONA  21,GIRONA,Girona,619467810,972001862,basquet@vedrunagirona.org,,MARTA OLIVA  GRIJELMO,XAVI VALLMAJÓ,972202084,639372666,vedrunagirona.org
3282,170310,CLUB BASQUET ESPORTIU VEDRUNA PALAMOS,C.B.A. VEDRUNA PALA,VEDRUNA PALAMOS CBA,C/ Xaloc 22,Palamós,Girona,689492642,,basquet@vedrunapalamos.org,,CARLOS GOMEZ MONTERO ,EDUARD LIMERES ,,689492642,
2346,430269,ASSOCIACIO DE BASQUET EL VENDRELL,ASS. BASQUET DEL VE,VENDRELL ASS. BASQUET EL,"C/ ARENAL, 1-3","VENDRELL, EL",Tarragona,658145083,977664679,dt.abvendrell@gmail.com,,CARLES AMBRONA SAURINA,ERIC BLAY PUNTAS,,658145083,
2004,081334,ASSOCIACIO ESPORTIVA ESCOLAR VERGE LES NEUS SANTA COLOMA DE GRAMENET,VERGE DE LES NEUS A,VERGE DE LES NEUS AE.E.,AVDA. CARLEMANY  4,BADALONA,Barcelona,647085580,934684012,basquetneus@gmail.com,basquetneus@gmail.com,MANUEL  RICO ORTIZ,RAUL PELLITERO,699356147,699356147,
355,170171,CLUB DE BASQUET VERGES,CLUB BASQUET VERGES,VERGES C.B.,"C/ TER, 2",VERGES,Girona,686400796,,clubbasquetverges@gmail.com,,ALBERT CASABÓ MAJÓ,MIQUEL MARTÍ CAROLÀ,,686400796,
38,080048,CLUB BASQUET VIC,C.B. VIC           ,VIC C.B.,"PL. PARE MILLÁN, S/N",VIC,Barcelona,938861440,938861440,clubbasquetvic@clubbasquetvic.cat,,JORDI MOLAS FONT,FRANCESC LUNA CANAMASAS,616640393,616640393,www.clubbasquetvic.cat
2572,081478,CLUB ESPORTIU VILA OLIMPICA,C.E. VILA OLIMPICA,VILA OLÍMPICA  C.E.,PL TIRANT LO BLANC 3,BARCELONA,Barcelona,933909215,000000000,diana.diaz@cevilaolimpica.com,,JOAN  LUCAS DIEGUEZ,DIANA DÍAZ,933909215,933909215,https://cevilaolimpica.es/
437,430019,CLUB BASQUET VILA-SECA,C.B. VILA-SECA,VILA-SECA C.B.,Carrer Amadeu Vives 27,"La Pineda Platja, Vila-seca",Tarragona,699894079,,direccioesportiva@cbvilaseca.org,,GERMÁN  FERNÁNDEZ URBANEJA,CARLOS APARICIO JORDÀ,699894079,699894079,http://www.cbvilaseca.org/
2733,170298,CLUB BASQUET VILABLAREIX,C.B. VILABLAREIX,VILABLAREIX CLUB BASQUET,C/ Francesc Macià 3 baixos 2ª,Vilablareix,Girona,650536706,000000000,vilablareixcb@gmail.com,,ANNA PAYET TORESANO,Toni Ruiz Arandia,,650536706,www.cbvilablareix.com
39,080049,CLUB BASQUETBOL VILADECANS,C.B. VILADECANS    ,VILADECANS C.B.,"AV. GERMANS GABRIELISTES, 22",VILADECANS,Barcelona,620662726,000000000,secretaria@cbviladecans.cat,,F. XAVIER BERNAT ROMERO,VICTOR CRUZ DE PABLO,936580082,616795049,www.cbviladecans.cat
266,081329,CLUB BASQUET FEMENI VILADECANS SPORTS,C.B. FEMENI VILADEC,VILADECANS SPORTS CB FEMENI,"avenida josep tarradelles, 17",VILADECANS,Barcelona,687406670,000000000,cambiosvilabasquet@gmail.com,bfviladecans@hotmail.com,SONIA PASCUAL MURO,SONIA GALAN TEJADO,,696373631,www.vilabasquet.com
221,081065,CLUB BASQUET VILADECAVALLS,C.B. VILADECAVALLS ,VILADECAVALLS C.B.,"CARRER SALMERON 140, 2º,3ª",TERRASSA,Barcelona,646646565,,cbviladecavalls1989@gmail.com,cbviladecavalls1989@gmail.com,MARTA LOPEZ NUÑEZ,Sergi Roldan Reinoso,,646646565,
2159,170255,CLUB ESPORTIU VILAFANT,C.E. VILAFANT      ,VILAFANT C.E.,"Tarrragona, 2",VILAFANT,Girona,635449793,,cbvilafant@gmail.com,,JORDI MALLORQUÍ ALABERT,JORDI MALLORQUI ALABERT,972000000,635449793,www.basquetvilafant.cat
2716,081532,VILANOVA DEL CAMI BASQUET CLUB ENDAVANT,VILANOVA CAMI B.C. ,VILANOVA DEL CAMI BASQUET CLUB ENDAVANT,PASSEIG DE LA INDUSTRIA Nº 90,VILANOVA DEL CAMI,Barcelona,615434149,000000000,vilanovabasquet@gmail.com,,OSCAR BORREGA BERMÚDEZ,Alexey Domènech Cano,,615434149,
199,080612,CLUB DE BASQUET VILANOVA DEL VALLES,C.B. VILANOVA DEL V,VILANOVA DEL VALLES C.B.,"MARIA AURÈLIA CAPMANY, 2-4",VILANOVA DEL VALLES,Barcelona,696903171,938458773,cbvilanovadelvalles@hotmail.com,,JOSEP FONTBONA PUIGPEY,LLUIS VALLS ,,638335768,www.cbvilanovadelvalles.cat
2446,080124,CLUB BASQUETBOL VILASSAR DE DALT,C.B. VILASSAR DE DA,VILASSAR DE DALT C.B.,"PAU PIFERRER, 28",VILASSAR DE DALT,Barcelona,619226399,,cbvilassardedalt@gmail.com,tonisxsc@hotmail.com,ANTONIO  SERRANO PULIDO,ALBERT ASSENS GONZALEZ,,617052670,
161,080356,CLUB DE BASQUET VILASSAR DE MAR,C.B. VILASSAR DE MA,VILASSAR DE MAR C.B.,MOSSEN PERE RIBOT 246,VILASSAR DE MAR,Barcelona,617662635,000000000,manel.navarro.sanjuan@gmail.com,cbvilassardemar@basquetcatala.com,JORGE ALCARAZ MARTINEZ,MANEL NAVARRO SANJUAN,937542400,617662635,http://vdmbasquet.cat/
236,081239,CLUB DE BASQUET VILATORRADA,C.B. VILATORRADA   ,VILATORRADA C.B.,CTRA. DE CALAF S/N,SANT JOAN DE VILATORRADA,Barcelona,669340223,,info@cbvilatorrada.cat,,YOLANDA GIMENEZ DELGADO,MIQUEL PUJOL GRASET,,669340223,
294,081372,CLUB ESPORTIU VILATORTA,CLUB ESPORTIU VILAT,VILATORTA CE,"Cr. de l'onze de setembre, 12",SANT JULIA DE VILATORTA,Barcelona,652295567,000000000,basquetvilatorta@gmail.com,,JORDI SOLÀ ROCA,JOSEP Ma  ACEITUNO BARCONS,,679252006,www.vilatortabasquet.cat
2324,170272,CLUB DE BASQUET VILOBI D'ONYAR,CLUB DE BASQUET VIL,VILOBI D'ONYAR C.B.,"c/ Sant Galderic, 6",VILOBI D'ONYAR,Girona,687698421,,cbvilobi@gmail.com,,JORDI BONA SIMON,Nuria de Valdivia,,667088240,
3069,081570,VIROLAI ESPORTIU CLUB BARCELONA,VIROLAI ESPORTIU C.,VIROLAI ESPORTIU CLUB BARCELONA,c/ceuta,BARCELONA,Barcelona,667603012,,gconde@virolai.com,,MONTSE BALLARIN ANDREU,GUILLEM CONDE BARBERÁN,932846458,667603012,
165,080366,CLUB ESPORTIU XAMBA,C.E. XAMBA         ,XAMBA C.E.,"AV. CATALUNYA, S/N",VILAFRANCA DEL PENEDES,Barcelona,621233956,,xamba@xamba.cat,,NOEMI DE LA FUENTE ALVAREZ,ERNESTO GINEBRA,,625787434,www.xamba.cat
